{"type": "FeatureCollection", "features": [{"type": "Feature", "properties": {"aoi_id": "AOI_LANCASTER", "description": "Lancaster Sound sensitive area (illustrative, not a legal boundary)"}, "geometry": {"type": "Polygon", "coordinates": [[[-91.0, 73.75], [-79.5, 73.75], [-79.5, 74.75], [-91.0, 74.75], [-91.0, 73.75]]]}}, {"type": "Feature", "properties": {"aoi_id": "AOI_HUDSON", "description": "Hudson Strait chokepoint (illustrative)"}, "geometry": {"type": "Polygon", "coordinates": [[[-78.0, 60.6], [-65.0, 60.6], [-65.0, 63.0], [-78.0, 63.0], [-78.0, 60.6]]]}}, {"type": "Feature", "properties": {"aoi_id": "AOI_DAVIS_CLOSED", "description": "Closed fishing area (fictional, for this exercise)"}, "geometry": {"type": "Polygon", "coordinates": [[[-61.6, 67.9], [-58.3, 67.9], [-58.3, 69.3], [-61.6, 69.3], [-61.6, 67.9]]]}}, {"type": "Feature", "properties": {"aoi_id": "AOI_QUEEN_MAUD", "description": "Queen Maud Gulf passage area (illustrative)"}, "geometry": {"type": "Polygon", "coordinates": [[[-102.5, 67.9], [-96.5, 67.9], [-96.5, 69.0], [-102.5, 69.0], [-102.5, 67.9]]]}}, {"type": "Feature", "properties": {"aoi_id": "AOI_BEAUFORT", "description": "Beaufort approaches (illustrative)"}, "geometry": {"type": "Polygon", "coordinates": [[[-141.0, 69.6], [-129.0, 69.6], [-129.0, 71.2], [-141.0, 71.2], [-141.0, 69.6]]]}}]}