{"type": "FeatureCollection", "features": [{"type": "Feature", "properties": {"fire_id": "PRC-001"}, "geometry": {"type": "Polygon", "coordinates": [[[-114.98493, 55.18369], [-114.99408, 55.19205], [-115.0132, 55.19369], [-115.01587, 55.1984], [-115.01998, 55.19763], [-115.02132, 55.19998], [-115.0131, 55.20151], [-115.01444, 55.20387], [-115.0021, 55.20616], [-115.00344, 55.20851], [-114.99521, 55.21004], [-114.99655, 55.2124], [-114.98698, 55.21157], [-114.98565, 55.20922], [-114.97331, 55.21151], [-114.96908, 55.2201], [-114.96085, 55.22163], [-114.96219, 55.22398], [-114.94573, 55.22703], [-114.94439, 55.22468], [-114.93616, 55.2262], [-114.93349, 55.2215], [-114.92937, 55.22226], [-114.92804, 55.21991], [-114.93494, 55.21603], [-114.9336, 55.21368], [-114.92949, 55.21444], [-114.92816, 55.21209], [-114.92126, 55.21596], [-114.92259, 55.21832], [-114.89378, 55.22365], [-114.89232, 55.22912], [-114.89644, 55.22836], [-114.89777, 55.23071], [-114.89365, 55.23147], [-114.89498, 55.23382], [-114.87718, 55.23451], [-114.87851, 55.23687], [-114.87439, 55.23763], [-114.87306, 55.23527], [-114.86482, 55.23679], [-114.86336, 55.24226], [-114.851, 55.24454], [-114.84967, 55.24219], [-114.83731, 55.24446], [-114.83598, 55.24211], [-114.83186, 55.24287], [-114.83319, 55.24522], [-114.82083, 55.2475], [-114.81685, 55.24044], [-114.82655, 55.23345], [-114.82479, 55.23032], [-114.82409, 55.23024], [-114.82293, 55.22998], [-114.82187, 55.22959], [-114.82122, 55.22923], [-114.81978, 55.2295], [-114.81869, 55.22758], [-114.81826, 55.22742], [-114.81794, 55.22724], [-114.80197, 55.23018], [-114.80344, 55.22471], [-114.80756, 55.22395], [-114.80491, 55.21925], [-114.80903, 55.21849], [-114.79549, 55.21059], [-114.80373, 55.20907], [-114.8024, 55.20672], [-114.81475, 55.20444], [-114.81622, 55.19898], [-114.82033, 55.19822], [-114.81092, 55.18956], [-114.82061, 55.18258], [-114.81929, 55.18022], [-114.8234, 55.17946], [-114.82075, 55.17476], [-114.82486, 55.174], [-114.82354, 55.17164], [-114.83176, 55.17013], [-114.83044, 55.16777], [-114.83455, 55.16701], [-114.83588, 55.16937], [-114.83832, 55.16892], [-114.83874, 55.1683], [-114.83942, 55.1677], [-114.83946, 55.16767], [-114.83866, 55.16625], [-114.84189, 55.16566], [-114.84225, 55.16534], [-114.84237, 55.16527], [-114.83601, 55.16155], [-114.82911, 55.16542], [-114.82779, 55.16306], [-114.82368, 55.16382], [-114.82514, 55.15836], [-114.82103, 55.15912], [-114.8197, 55.15676], [-114.82381, 55.156], [-114.82249, 55.15365], [-114.81838, 55.15441], [-114.81705, 55.15205], [-114.80883, 55.15357], [-114.80208, 55.14962], [-114.80619, 55.14886], [-114.80354, 55.14415], [-114.81176, 55.14264], [-114.81601, 55.13406], [-114.82012, 55.1333], [-114.81879, 55.13095], [-114.82701, 55.12943], [-114.82569, 55.12708], [-114.85854, 55.12101], [-114.87073, 55.12655], [-114.87484, 55.12579], [-114.87617, 55.12814], [-114.88438, 55.12662], [-114.88571, 55.12897], [-114.9008, 55.12357], [-114.89947, 55.12122], [-114.91179, 55.11894], [-114.91312, 55.12129], [-114.92543, 55.11901], [-114.92676, 55.12136], [-114.93497, 55.11983], [-114.9363, 55.12219], [-114.94451, 55.12066], [-114.95128, 55.1246], [-114.9718, 55.12079], [-114.97857, 55.12473], [-114.99088, 55.12243], [-114.99765, 55.12637], [-115.00176, 55.12561], [-115.00299, 55.13578], [-115.01798, 55.13819], [-115.01655, 55.14365], [-115.02065, 55.14289], [-115.02199, 55.14524], [-115.01511, 55.14912], [-115.01645, 55.15147], [-115.02056, 55.15071], [-115.02457, 55.15776], [-115.02046, 55.15853], [-115.0218, 55.16088], [-115.02591, 55.16011], [-115.02858, 55.16482], [-115.01081, 55.16553], [-115.01215, 55.16788], [-114.99982, 55.17018], [-115.00116, 55.17253], [-114.99705, 55.17329], [-114.99572, 55.17094], [-114.9875, 55.17247], [-114.98606, 55.17794], [-114.99017, 55.17717], [-114.9915, 55.17953], [-114.98584, 55.18272], [-114.98557, 55.18312], [-114.98493, 55.18369]]]}}, {"type": "Feature", "properties": {"fire_id": "PRC-002"}, "geometry": {"type": "Polygon", "coordinates": [[[-111.5439, 56.63232], [-111.54498, 56.63259], [-111.54757, 56.63221], [-111.54641, 56.62982], [-111.55076, 56.62918], [-111.55308, 56.63397], [-111.56845, 56.63685], [-111.57077, 56.64165], [-111.58063, 56.64276], [-111.57947, 56.64037], [-111.58382, 56.63973], [-111.59051, 56.64298], [-111.59142, 56.64289], [-111.59273, 56.64292], [-111.594, 56.64308], [-111.59519, 56.64338], [-111.59625, 56.6438], [-111.59715, 56.64433], [-111.59784, 56.64494], [-111.5981, 56.64533], [-111.60035, 56.645], [-111.60151, 56.6474], [-111.60053, 56.64754], [-111.60118, 56.64812], [-111.60146, 56.64853], [-111.60215, 56.64881], [-111.60305, 56.64934], [-111.60374, 56.64995], [-111.6042, 56.65062], [-111.60441, 56.65133], [-111.60436, 56.65205], [-111.60407, 56.65275], [-111.60353, 56.65341], [-111.60276, 56.654], [-111.60181, 56.65449], [-111.6007, 56.65487], [-111.59947, 56.65512], [-111.59944, 56.65512], [-111.59926, 56.65522], [-111.59815, 56.6556], [-111.59692, 56.65585], [-111.59564, 56.65597], [-111.59548, 56.65599], [-111.59558, 56.65631], [-111.59554, 56.65703], [-111.59524, 56.65773], [-111.5947, 56.65839], [-111.59393, 56.65898], [-111.5938, 56.65905], [-111.5939, 56.65919], [-111.59411, 56.6599], [-111.59407, 56.66062], [-111.59377, 56.66132], [-111.59323, 56.66198], [-111.59246, 56.66257], [-111.59151, 56.66306], [-111.5904, 56.66344], [-111.58917, 56.66369], [-111.58788, 56.66381], [-111.58657, 56.66378], [-111.58603, 56.66371], [-111.58613, 56.66385], [-111.58634, 56.66456], [-111.5863, 56.66528], [-111.586, 56.66599], [-111.58546, 56.66664], [-111.58469, 56.66723], [-111.58374, 56.66772], [-111.58343, 56.66782], [-111.58338, 56.66789], [-111.58261, 56.66848], [-111.58166, 56.66897], [-111.58055, 56.66935], [-111.57932, 56.6696], [-111.57803, 56.66972], [-111.57672, 56.66969], [-111.57545, 56.66953], [-111.57426, 56.66923], [-111.57319, 56.66881], [-111.5723, 56.66828], [-111.57161, 56.66767], [-111.57115, 56.667], [-111.57094, 56.66629], [-111.57098, 56.66557], [-111.57128, 56.66486], [-111.57182, 56.66421], [-111.57221, 56.66391], [-111.57207, 56.66361], [-111.57133, 56.66359], [-111.57006, 56.66343], [-111.56887, 56.66313], [-111.5678, 56.66271], [-111.56768, 56.66264], [-111.55828, 56.66402], [-111.55944, 56.66641], [-111.55074, 56.66769], [-111.55189, 56.67009], [-111.54754, 56.67073], [-111.5487, 56.67312], [-111.53999, 56.6744], [-111.53883, 56.672], [-111.53448, 56.67264], [-111.53244, 56.67807], [-111.53679, 56.67744], [-111.53911, 56.68223], [-111.53475, 56.68287], [-111.53591, 56.68527], [-111.52284, 56.68718], [-111.51617, 56.68302], [-111.51181, 56.68366], [-111.51706, 56.67519], [-111.52141, 56.67455], [-111.51845, 56.6727], [-111.51784, 56.67276], [-111.51653, 56.67273], [-111.51526, 56.67257], [-111.51407, 56.67227], [-111.51301, 56.67185], [-111.51212, 56.67132], [-111.51159, 56.67085], [-111.51039, 56.67103], [-111.51154, 56.67343], [-111.50283, 56.6747], [-111.50399, 56.6771], [-111.49528, 56.67837], [-111.49003, 56.68684], [-111.48567, 56.68748], [-111.48452, 56.68508], [-111.4758, 56.68635], [-111.48105, 56.67788], [-111.47118, 56.67676], [-111.46888, 56.67196], [-111.47323, 56.67132], [-111.47208, 56.66893], [-111.46772, 56.66956], [-111.46657, 56.66716], [-111.47733, 56.66046], [-111.47617, 56.65806], [-111.48488, 56.65679], [-111.48373, 56.65439], [-111.49679, 56.65249], [-111.49563, 56.65009], [-111.49998, 56.64945], [-111.49652, 56.64226], [-111.50638, 56.64338], [-111.50842, 56.63795], [-111.51277, 56.63731], [-111.51393, 56.63971], [-111.51974, 56.63886], [-111.52014, 56.63855], [-111.52027, 56.63825], [-111.52081, 56.6376], [-111.52157, 56.63701], [-111.52187, 56.63686], [-111.52147, 56.63604], [-111.52783, 56.63511], [-111.52784, 56.63502], [-111.52814, 56.63432], [-111.52868, 56.63367], [-111.52944, 56.63308], [-111.5304, 56.63259], [-111.53151, 56.63221], [-111.53274, 56.63196], [-111.53403, 56.63184], [-111.53533, 56.63187], [-111.53661, 56.63203], [-111.5377, 56.63231], [-111.53824, 56.63219], [-111.53771, 56.63109], [-111.54206, 56.63046], [-111.5429, 56.63219], [-111.5439, 56.63232]]]}}, {"type": "Feature", "properties": {"fire_id": "PRC-003"}, "geometry": {"type": "MultiPolygon", "coordinates": [[[[-115.02067, 56.26941], [-115.02196, 56.2694], [-115.02324, 56.26952], [-115.02444, 56.26979], [-115.02553, 56.27017], [-115.02635, 56.27061], [-115.02723, 56.2705], [-115.02852, 56.27049], [-115.0298, 56.27061], [-115.031, 56.27088], [-115.03209, 56.27126], [-115.03225, 56.27135], [-115.03263, 56.27148], [-115.03357, 56.27198], [-115.03431, 56.27257], [-115.03483, 56.27323], [-115.0351, 56.27394], [-115.03513, 56.27466], [-115.0349, 56.27536], [-115.03443, 56.27603], [-115.03374, 56.27664], [-115.03284, 56.27716], [-115.03178, 56.27757], [-115.03126, 56.2777], [-115.03105, 56.27835], [-115.03058, 56.27902], [-115.03035, 56.27923], [-115.03058, 56.27979], [-115.03059, 56.28027], [-115.03066, 56.28035], [-115.03094, 56.28106], [-115.03096, 56.28178], [-115.03074, 56.28248], [-115.03026, 56.28316], [-115.02957, 56.28376], [-115.02867, 56.28428], [-115.02761, 56.28469], [-115.02642, 56.28498], [-115.02516, 56.28514], [-115.02387, 56.28515], [-115.02259, 56.28503], [-115.02139, 56.28476], [-115.02077, 56.28455], [-115.02054, 56.28468], [-115.01948, 56.28509], [-115.01829, 56.28538], [-115.01703, 56.28554], [-115.01574, 56.28555], [-115.01446, 56.28543], [-115.01326, 56.28516], [-115.01216, 56.28478], [-115.01123, 56.28428], [-115.01065, 56.28381], [-115.01018, 56.28387], [-115.00888, 56.28388], [-115.00773, 56.28377], [-115.00672, 56.28401], [-115.00546, 56.28417], [-115.00416, 56.28418], [-115.00289, 56.28406], [-115.00168, 56.28379], [-115.00059, 56.2834], [-115.0003, 56.28325], [-115.00032, 56.28386], [-115.0001, 56.28457], [-114.99962, 56.28524], [-114.99893, 56.28584], [-114.99803, 56.28636], [-114.99697, 56.28677], [-114.99578, 56.28706], [-114.99452, 56.28722], [-114.99322, 56.28723], [-114.99195, 56.2871], [-114.99074, 56.28684], [-114.98978, 56.2865], [-114.98946, 56.28654], [-114.98835, 56.28655], [-114.98814, 56.28667], [-114.98708, 56.28708], [-114.98589, 56.28737], [-114.98463, 56.28753], [-114.98333, 56.28754], [-114.98206, 56.28741], [-114.98085, 56.28715], [-114.97976, 56.28676], [-114.97883, 56.28627], [-114.97809, 56.28567], [-114.97806, 56.28563], [-114.97739, 56.28564], [-114.97727, 56.28563], [-114.97644, 56.28611], [-114.97538, 56.28652], [-114.97419, 56.28681], [-114.97293, 56.28697], [-114.97163, 56.28698], [-114.97036, 56.28685], [-114.96915, 56.28659], [-114.96806, 56.2862], [-114.96713, 56.2857], [-114.96639, 56.28511], [-114.96619, 56.28487], [-114.96502, 56.28461], [-114.96393, 56.28422], [-114.963, 56.28372], [-114.96226, 56.28313], [-114.96174, 56.28247], [-114.96146, 56.28177], [-114.96144, 56.28105], [-114.96167, 56.28034], [-114.96214, 56.27967], [-114.96284, 56.27907], [-114.96373, 56.27855], [-114.9648, 56.27814], [-114.96598, 56.27785], [-114.96656, 56.27778], [-114.96687, 56.27734], [-114.96757, 56.27674], [-114.96846, 56.27622], [-114.96953, 56.27581], [-114.97071, 56.27552], [-114.97099, 56.27548], [-114.97122, 56.27543], [-114.97249, 56.27527], [-114.97378, 56.27526], [-114.97505, 56.27539], [-114.97621, 56.27564], [-114.9763, 56.27535], [-114.97677, 56.27468], [-114.97747, 56.27408], [-114.97836, 56.27356], [-114.97942, 56.27315], [-114.98061, 56.27286], [-114.98187, 56.2727], [-114.98317, 56.27269], [-114.98444, 56.27282], [-114.98565, 56.27308], [-114.98674, 56.27347], [-114.98767, 56.27396], [-114.98827, 56.27444], [-114.98841, 56.27446], [-114.98962, 56.27472], [-114.99071, 56.27511], [-114.99164, 56.2756], [-114.99238, 56.2762], [-114.9929, 56.27685], [-114.99318, 56.27756], [-114.9932, 56.27811], [-114.9939, 56.27836], [-114.99483, 56.27885], [-114.99557, 56.27944], [-114.99609, 56.2801], [-114.99611, 56.28016], [-114.99674, 56.2803], [-114.99783, 56.28069], [-114.99812, 56.28084], [-114.9981, 56.28023], [-114.99833, 56.27952], [-114.9988, 56.27885], [-114.99927, 56.27844], [-114.99937, 56.27815], [-114.99982, 56.27751], [-114.99959, 56.27693], [-114.99957, 56.27621], [-114.9998, 56.2755], [-115.00027, 56.27483], [-115.00096, 56.27423], [-115.00186, 56.27371], [-115.00292, 56.2733], [-115.00411, 56.27301], [-115.00537, 56.27285], [-115.0063, 56.27284], [-115.00673, 56.27268], [-115.00791, 56.27239], [-115.00846, 56.27191], [-115.00936, 56.27139], [-115.01042, 56.27098], [-115.01161, 56.27069], [-115.01287, 56.27053], [-115.01299, 56.27053], [-115.01336, 56.27032], [-115.01442, 56.26991], [-115.01561, 56.26962], [-115.01687, 56.26946], [-115.01816, 56.26945], [-115.0194, 56.26957], [-115.01941, 56.26957], [-115.02067, 56.26941]]], [[[-115.0267, 56.29232], [-115.02799, 56.29231], [-115.02927, 56.29243], [-115.03047, 56.2927], [-115.03138, 56.29302], [-115.03164, 56.29279], [-115.03254, 56.29227], [-115.0336, 56.29186], [-115.03478, 56.29157], [-115.03605, 56.29141], [-115.03734, 56.2914], [-115.03862, 56.29152], [-115.03982, 56.29179], [-115.04091, 56.29217], [-115.04185, 56.29267], [-115.04259, 56.29326], [-115.04311, 56.29392], [-115.04339, 56.29463], [-115.04341, 56.29534], [-115.04319, 56.29605], [-115.04272, 56.29672], [-115.04202, 56.29733], [-115.04112, 56.29785], [-115.04006, 56.29826], [-115.03924, 56.29846], [-115.03905, 56.29906], [-115.03869, 56.29957], [-115.03886, 56.29961], [-115.03996, 56.29999], [-115.04089, 56.30049], [-115.04163, 56.30108], [-115.04215, 56.30174], [-115.04243, 56.30245], [-115.04246, 56.30316], [-115.04223, 56.30387], [-115.04176, 56.30454], [-115.04176, 56.30455], [-115.04212, 56.30474], [-115.04286, 56.30533], [-115.04307, 56.30559], [-115.04378, 56.30566], [-115.04498, 56.30593], [-115.04608, 56.30631], [-115.04701, 56.30681], [-115.04775, 56.3074], [-115.04827, 56.30806], [-115.04855, 56.30876], [-115.04858, 56.30948], [-115.04835, 56.31019], [-115.04788, 56.31086], [-115.04747, 56.31122], [-115.04814, 56.31176], [-115.04866, 56.31242], [-115.04894, 56.31312], [-115.04897, 56.31384], [-115.04874, 56.31455], [-115.04827, 56.31522], [-115.04757, 56.31583], [-115.04668, 56.31635], [-115.04561, 56.31676], [-115.04492, 56.31693], [-115.04561, 56.3173], [-115.04635, 56.31789], [-115.04687, 56.31855], [-115.04715, 56.31925], [-115.04716, 56.31957], [-115.04782, 56.31919], [-115.04888, 56.31878], [-115.04916, 56.31871], [-115.04982, 56.31814], [-115.05071, 56.31762], [-115.05177, 56.31721], [-115.05296, 56.31692], [-115.05418, 56.31677], [-115.05484, 56.31661], [-115.05611, 56.31645], [-115.0574, 56.31644], [-115.05868, 56.31656], [-115.05988, 56.31683], [-115.06098, 56.31721], [-115.06191, 56.31771], [-115.06265, 56.3183], [-115.06317, 56.31896], [-115.06335, 56.3194], [-115.06398, 56.31974], [-115.06472, 56.32033], [-115.06524, 56.32099], [-115.06552, 56.32169], [-115.06555, 56.32241], [-115.06532, 56.32312], [-115.06485, 56.32379], [-115.06442, 56.32417], [-115.06422, 56.32479], [-115.06375, 56.32546], [-115.06306, 56.32607], [-115.06268, 56.32629], [-115.06285, 56.3265], [-115.06313, 56.3272], [-115.06316, 56.32792], [-115.06293, 56.32863], [-115.06246, 56.3293], [-115.06177, 56.32991], [-115.0614, 56.33012], [-115.06156, 56.33031], [-115.06183, 56.33101], [-115.06186, 56.33173], [-115.06185, 56.33177], [-115.06204, 56.33166], [-115.0631, 56.33125], [-115.06429, 56.33096], [-115.06555, 56.3308], [-115.06685, 56.33079], [-115.06813, 56.33091], [-115.06933, 56.33118], [-115.07043, 56.33156], [-115.07136, 56.33206], [-115.0721, 56.33265], [-115.07263, 56.33331], [-115.07291, 56.33401], [-115.07293, 56.33473], [-115.07271, 56.33544], [-115.07227, 56.33606], [-115.07257, 56.33643], [-115.07285, 56.33713], [-115.07286, 56.33739], [-115.07307, 56.33756], [-115.07359, 56.33822], [-115.07387, 56.33892], [-115.07389, 56.33964], [-115.07367, 56.34035], [-115.0732, 56.34102], [-115.0725, 56.34163], [-115.07246, 56.34165], [-115.07231, 56.34214], [-115.07184, 56.34281], [-115.07114, 56.34342], [-115.07024, 56.34394], [-115.06918, 56.34435], [-115.06867, 56.34448], [-115.06914, 56.34507], [-115.06942, 56.34577], [-115.06944, 56.34649], [-115.06922, 56.3472], [-115.06875, 56.34787], [-115.06805, 56.34848], [-115.0679, 56.34857], [-115.06773, 56.3491], [-115.06726, 56.34977], [-115.06656, 56.35038], [-115.06566, 56.3509], [-115.0646, 56.35131], [-115.06341, 56.3516], [-115.06215, 56.35176], [-115.06085, 56.35177], [-115.05957, 56.35165], [-115.05836, 56.35138], [-115.05727, 56.351], [-115.05682, 56.35076], [-115.05663, 56.35072], [-115.05608, 56.35103], [-115.05555, 56.35124], [-115.05555, 56.35133], [-115.05661, 56.35156], [-115.0577, 56.35194], [-115.05864, 56.35244], [-115.05938, 56.35303], [-115.0599, 56.35369], [-115.06018, 56.35439], [-115.06021, 56.35511], [-115.05998, 56.35582], [-115.05951, 56.35649], [-115.05881, 56.3571], [-115.05791, 56.35762], [-115.05715, 56.35792], [-115.05732, 56.35813], [-115.0576, 56.35883], [-115.05763, 56.35955], [-115.0574, 56.36026], [-115.05693, 56.36093], [-115.05623, 56.36154], [-115.05533, 56.36206], [-115.05427, 56.36247], [-115.05308, 56.36276], [-115.05181, 56.36292], [-115.05117, 56.36292], [-115.05141, 56.36311], [-115.05193, 56.36377], [-115.05221, 56.36447], [-115.05223, 56.3651], [-115.05275, 56.36575], [-115.05303, 56.36645], [-115.05306, 56.36717], [-115.05283, 56.36788], [-115.05236, 56.36855], [-115.05166, 56.36916], [-115.05076, 56.36968], [-115.0497, 56.37009], [-115.04851, 56.37038], [-115.04724, 56.37054], [-115.04595, 56.37055], [-115.04577, 56.37053], [-115.04533, 56.37091], [-115.04443, 56.37143], [-115.04426, 56.3715], [-115.04481, 56.37169], [-115.04575, 56.37219], [-115.04649, 56.37278], [-115.04701, 56.37344], [-115.04729, 56.37414], [-115.04732, 56.37486], [-115.04709, 56.37557], [-115.04662, 56.37624], [-115.04592, 56.37685], [-115.04502, 56.37737], [-115.04396, 56.37778], [-115.04277, 56.37807], [-115.0425, 56.37811], [-115.04219, 56.37828], [-115.04113, 56.37869], [-115.03994, 56.37898], [-115.03867, 56.37914], [-115.03738, 56.37915], [-115.0361, 56.37903], [-115.03489, 56.37876], [-115.0338, 56.37838], [-115.03286, 56.37788], [-115.03212, 56.37729], [-115.0316, 56.37663], [-115.03132, 56.37592], [-115.03129, 56.3752], [-115.03152, 56.3745], [-115.03199, 56.37383], [-115.03269, 56.37322], [-115.03359, 56.3727], [-115.03465, 56.37229], [-115.03535, 56.37212], [-115.03433, 56.37189], [-115.03324, 56.37151], [-115.0323, 56.37101], [-115.03156, 56.37042], [-115.03104, 56.36976], [-115.03076, 56.36905], [-115.03073, 56.36833], [-115.03083, 56.36803], [-115.03056, 56.36794], [-115.02962, 56.36744], [-115.02888, 56.36685], [-115.02836, 56.36619], [-115.02808, 56.36548], [-115.02805, 56.36476], [-115.02827, 56.36409], [-115.02812, 56.36405], [-115.02703, 56.36367], [-115.02609, 56.36317], [-115.02535, 56.36258], [-115.02483, 56.36192], [-115.02455, 56.36121], [-115.02452, 56.36049], [-115.02475, 56.35979], [-115.02522, 56.35911], [-115.02592, 56.35851], [-115.02682, 56.35799], [-115.02788, 56.35758], [-115.02789, 56.35757], [-115.02775, 56.35721], [-115.02772, 56.35651], [-115.02747, 56.35649], [-115.02626, 56.35622], [-115.02517, 56.35584], [-115.02423, 56.35534], [-115.02349, 56.35475], [-115.02297, 56.35409], [-115.02269, 56.35338], [-115.02266, 56.35266], [-115.02273, 56.35245], [-115.02265, 56.35239], [-115.02213, 56.35173], [-115.02208, 56.35161], [-115.02208, 56.35161], [-115.02081, 56.35177], [-115.01951, 56.35178], [-115.01824, 56.35166], [-115.01703, 56.35139], [-115.01594, 56.35101], [-115.015, 56.35051], [-115.01463, 56.35021], [-115.0146, 56.35032], [-115.01413, 56.35099], [-115.01343, 56.35159], [-115.01253, 56.35211], [-115.01215, 56.35226], [-115.01262, 56.35263], [-115.01314, 56.35329], [-115.01342, 56.354], [-115.01345, 56.35472], [-115.01322, 56.35543], [-115.01275, 56.3561], [-115.01205, 56.3567], [-115.01115, 56.35722], [-115.01009, 56.35763], [-115.00908, 56.35788], [-115.00896, 56.35826], [-115.00849, 56.35893], [-115.00779, 56.35953], [-115.00689, 56.36005], [-115.00583, 56.36046], [-115.00464, 56.36075], [-115.00337, 56.36091], [-115.00207, 56.36092], [-115.0008, 56.3608], [-114.99959, 56.36053], [-114.9988, 56.36026], [-114.99861, 56.36024], [-114.9985, 56.36021], [-114.99837, 56.36023], [-114.99707, 56.36024], [-114.9958, 56.36012], [-114.99459, 56.35985], [-114.99349, 56.35947], [-114.9928, 56.3591], [-114.99264, 56.35961], [-114.99217, 56.36028], [-114.99147, 56.36088], [-114.99057, 56.3614], [-114.9895, 56.36181], [-114.98832, 56.3621], [-114.98705, 56.36226], [-114.98575, 56.36227], [-114.98447, 56.36215], [-114.98408, 56.36206], [-114.98349, 56.3624], [-114.98301, 56.36259], [-114.98301, 56.3626], [-114.98231, 56.3632], [-114.98141, 56.36372], [-114.98034, 56.36413], [-114.97915, 56.36442], [-114.97789, 56.36458], [-114.97659, 56.36459], [-114.97556, 56.36449], [-114.97516, 56.36472], [-114.97583, 56.36526], [-114.97635, 56.36592], [-114.97663, 56.36662], [-114.97666, 56.36734], [-114.97643, 56.36805], [-114.97596, 56.36872], [-114.97526, 56.36932], [-114.97436, 56.36984], [-114.97329, 56.37026], [-114.9721, 56.37054], [-114.97084, 56.3707], [-114.96954, 56.37071], [-114.96826, 56.37059], [-114.96705, 56.37032], [-114.96596, 56.36993], [-114.96503, 56.36943], [-114.96428, 56.36884], [-114.96414, 56.36866], [-114.96404, 56.36868], [-114.96278, 56.36884], [-114.96148, 56.36885], [-114.96053, 56.36876], [-114.9604, 56.36895], [-114.9597, 56.36956], [-114.9588, 56.37007], [-114.95773, 56.37049], [-114.95654, 56.37077], [-114.95528, 56.37093], [-114.95398, 56.37094], [-114.9527, 56.37081], [-114.95149, 56.37055], [-114.9504, 56.37016], [-114.94947, 56.36966], [-114.94872, 56.36907], [-114.9482, 56.36841], [-114.94793, 56.36771], [-114.9479, 56.36699], [-114.94813, 56.36628], [-114.9486, 56.36561], [-114.9493, 56.365], [-114.9502, 56.36449], [-114.9508, 56.36425], [-114.94982, 56.3639], [-114.94889, 56.3634], [-114.94873, 56.36328], [-114.9484, 56.36328], [-114.94825, 56.36327], [-114.94809, 56.36378], [-114.94761, 56.36445], [-114.94691, 56.36506], [-114.94601, 56.36557], [-114.94511, 56.36592], [-114.94455, 56.36624], [-114.94349, 56.36666], [-114.9423, 56.36694], [-114.94103, 56.3671], [-114.93974, 56.36711], [-114.93846, 56.36698], [-114.93725, 56.36672], [-114.93616, 56.36633], [-114.93533, 56.36589], [-114.93501, 56.36607], [-114.93456, 56.36625], [-114.93421, 56.36674], [-114.93351, 56.36735], [-114.93261, 56.36787], [-114.93155, 56.36828], [-114.93036, 56.36856], [-114.92909, 56.36872], [-114.9278, 56.36873], [-114.92652, 56.3686], [-114.92531, 56.36834], [-114.92422, 56.36795], [-114.92328, 56.36745], [-114.92254, 56.36686], [-114.92202, 56.3662], [-114.92175, 56.3655], [-114.92174, 56.36516], [-114.92108, 56.36481], [-114.92034, 56.36422], [-114.91982, 56.36356], [-114.91955, 56.36286], [-114.91952, 56.36214], [-114.91975, 56.36143], [-114.92023, 56.36076], [-114.92093, 56.36015], [-114.92183, 56.35963], [-114.92289, 56.35922], [-114.92408, 56.35894], [-114.92535, 56.35878], [-114.92664, 56.35877], [-114.92671, 56.35878], [-114.92668, 56.35869], [-114.92665, 56.35797], [-114.92688, 56.35726], [-114.92736, 56.35659], [-114.92806, 56.35598], [-114.92896, 56.35546], [-114.93002, 56.35505], [-114.9303, 56.35499], [-114.92957, 56.3544], [-114.92905, 56.35374], [-114.92877, 56.35304], [-114.92875, 56.35232], [-114.92897, 56.35161], [-114.92945, 56.35094], [-114.93015, 56.35033], [-114.93105, 56.34982], [-114.93211, 56.3494], [-114.93266, 56.34927], [-114.93245, 56.34874], [-114.93243, 56.34802], [-114.93266, 56.34731], [-114.93313, 56.34664], [-114.93383, 56.34603], [-114.93473, 56.34552], [-114.93579, 56.3451], [-114.93698, 56.34482], [-114.93825, 56.34466], [-114.93954, 56.34465], [-114.94082, 56.34478], [-114.94203, 56.34504], [-114.94305, 56.3454], [-114.94265, 56.34508], [-114.94213, 56.34442], [-114.94185, 56.34372], [-114.94183, 56.343], [-114.94192, 56.34271], [-114.94105, 56.34224], [-114.94031, 56.34165], [-114.93979, 56.34099], [-114.93951, 56.34029], [-114.93949, 56.33957], [-114.93972, 56.33886], [-114.94019, 56.33819], [-114.94089, 56.33758], [-114.94099, 56.33753], [-114.94115, 56.3373], [-114.94185, 56.33669], [-114.94275, 56.33618], [-114.94374, 56.33579], [-114.94306, 56.33555], [-114.94213, 56.33505], [-114.94193, 56.33489], [-114.94144, 56.33484], [-114.94023, 56.33458], [-114.93914, 56.33419], [-114.93895, 56.33409], [-114.93835, 56.33423], [-114.93708, 56.33439], [-114.93579, 56.3344], [-114.93451, 56.33427], [-114.9333, 56.33401], [-114.93221, 56.33362], [-114.93128, 56.33312], [-114.93054, 56.33253], [-114.93002, 56.33187], [-114.92974, 56.33117], [-114.92972, 56.33045], [-114.92977, 56.33029], [-114.92958, 56.33019], [-114.92884, 56.3296], [-114.92832, 56.32894], [-114.92811, 56.32841], [-114.92772, 56.3282], [-114.92698, 56.32761], [-114.92646, 56.32695], [-114.92618, 56.32625], [-114.92616, 56.32553], [-114.92631, 56.32506], [-114.92629, 56.32505], [-114.9252, 56.32466], [-114.92427, 56.32416], [-114.92353, 56.32357], [-114.92301, 56.32291], [-114.92274, 56.32221], [-114.92271, 56.32149], [-114.92294, 56.32078], [-114.92341, 56.32011], [-114.92411, 56.3195], [-114.92501, 56.31899], [-114.92608, 56.31857], [-114.92726, 56.31829], [-114.92853, 56.31813], [-114.92982, 56.31812], [-114.93035, 56.31817], [-114.93025, 56.3179], [-114.93022, 56.31718], [-114.93045, 56.31647], [-114.93092, 56.3158], [-114.93162, 56.31519], [-114.93252, 56.31468], [-114.93359, 56.31426], [-114.93477, 56.31398], [-114.93604, 56.31382], [-114.93733, 56.31381], [-114.93861, 56.31394], [-114.93981, 56.3142], [-114.9409, 56.31459], [-114.94184, 56.31509], [-114.94199, 56.3152], [-114.94233, 56.31471], [-114.94303, 56.3141], [-114.94393, 56.31359], [-114.94499, 56.31317], [-114.94618, 56.31289], [-114.94745, 56.31273], [-114.94874, 56.31272], [-114.95002, 56.31285], [-114.95019, 56.31288], [-114.95038, 56.31278], [-114.95144, 56.31236], [-114.95263, 56.31208], [-114.9539, 56.31192], [-114.95519, 56.31191], [-114.95647, 56.31204], [-114.95767, 56.3123], [-114.95876, 56.31269], [-114.9597, 56.31319], [-114.96044, 56.31378], [-114.96096, 56.31444], [-114.96123, 56.31514], [-114.96126, 56.31586], [-114.96103, 56.31657], [-114.96056, 56.31724], [-114.95986, 56.31784], [-114.9597, 56.31794], [-114.95985, 56.31834], [-114.95987, 56.31892], [-114.95996, 56.31896], [-114.9609, 56.31946], [-114.96164, 56.32005], [-114.96216, 56.32071], [-114.96243, 56.32141], [-114.96246, 56.32213], [-114.96223, 56.32284], [-114.96176, 56.32351], [-114.96106, 56.32411], [-114.96099, 56.32415], [-114.96119, 56.32411], [-114.96246, 56.32395], [-114.96375, 56.32394], [-114.96503, 56.32407], [-114.96623, 56.32433], [-114.96732, 56.32472], [-114.96826, 56.32522], [-114.969, 56.32581], [-114.96952, 56.32647], [-114.9698, 56.32717], [-114.96982, 56.32789], [-114.96959, 56.3286], [-114.96948, 56.32876], [-114.96948, 56.3288], [-114.96925, 56.32951], [-114.96878, 56.33018], [-114.96808, 56.33078], [-114.96718, 56.3313], [-114.96635, 56.33163], [-114.96616, 56.33221], [-114.96569, 56.33288], [-114.96499, 56.33348], [-114.96458, 56.33372], [-114.96454, 56.33375], [-114.96364, 56.33427], [-114.96357, 56.3343], [-114.9645, 56.33451], [-114.9656, 56.3349], [-114.96653, 56.3354], [-114.96727, 56.33599], [-114.96779, 56.33665], [-114.96807, 56.33735], [-114.96809, 56.33807], [-114.96786, 56.33878], [-114.96739, 56.33945], [-114.96706, 56.33974], [-114.96694, 56.34009], [-114.96647, 56.34076], [-114.96633, 56.34088], [-114.96676, 56.34143], [-114.967, 56.34202], [-114.96718, 56.34204], [-114.96717, 56.34158], [-114.9674, 56.34087], [-114.96787, 56.3402], [-114.96857, 56.3396], [-114.96947, 56.33908], [-114.97053, 56.33867], [-114.97172, 56.33838], [-114.97298, 56.33822], [-114.97428, 56.33821], [-114.97556, 56.33833], [-114.97676, 56.3386], [-114.97771, 56.33893], [-114.97877, 56.3388], [-114.98007, 56.33879], [-114.98135, 56.33891], [-114.98165, 56.33898], [-114.98223, 56.33865], [-114.9833, 56.33824], [-114.98449, 56.33795], [-114.98485, 56.3379], [-114.98531, 56.33773], [-114.98556, 56.33766], [-114.98633, 56.33722], [-114.9874, 56.33681], [-114.98859, 56.33652], [-114.98881, 56.33649], [-114.98903, 56.33644], [-114.99029, 56.33628], [-114.99159, 56.33627], [-114.99286, 56.33639], [-114.99407, 56.33666], [-114.99516, 56.33705], [-114.9961, 56.33754], [-114.99684, 56.33813], [-114.99699, 56.33832], [-114.99714, 56.3384], [-114.99788, 56.33899], [-114.9984, 56.33965], [-114.99868, 56.34036], [-114.9987, 56.34108], [-114.99848, 56.34179], [-114.998, 56.34246], [-114.9973, 56.34306], [-114.99641, 56.34358], [-114.99559, 56.3439], [-114.99668, 56.34414], [-114.9974, 56.34439], [-114.99752, 56.34423], [-114.99821, 56.34363], [-114.99857, 56.34342], [-114.99879, 56.34323], [-114.99969, 56.34271], [-115.00076, 56.3423], [-115.00194, 56.34201], [-115.00321, 56.34185], [-115.00354, 56.34185], [-115.003, 56.3418], [-115.00179, 56.34153], [-115.0007, 56.34115], [-114.99976, 56.34065], [-114.99902, 56.34006], [-114.9985, 56.3394], [-114.99822, 56.33869], [-114.9982, 56.33797], [-114.99842, 56.33726], [-114.9989, 56.33659], [-114.9996, 56.33599], [-115.00049, 56.33547], [-115.00156, 56.33506], [-115.00274, 56.33477], [-115.00401, 56.33461], [-115.00405, 56.33461], [-115.00485, 56.33415], [-115.00592, 56.33374], [-115.00618, 56.33367], [-115.00643, 56.33346], [-115.00732, 56.33294], [-115.00839, 56.33253], [-115.00957, 56.33224], [-115.01084, 56.33208], [-115.01214, 56.33207], [-115.01341, 56.33219], [-115.01462, 56.33246], [-115.01571, 56.33284], [-115.01665, 56.33334], [-115.01739, 56.33393], [-115.01791, 56.33459], [-115.01819, 56.3353], [-115.01821, 56.33602], [-115.0181, 56.33638], [-115.01921, 56.33662], [-115.0203, 56.337], [-115.02124, 56.3375], [-115.02198, 56.33809], [-115.02225, 56.33843], [-115.02242, 56.33819], [-115.02245, 56.33816], [-115.02184, 56.33784], [-115.0211, 56.33725], [-115.02058, 56.33659], [-115.0203, 56.33588], [-115.02028, 56.33516], [-115.0205, 56.33446], [-115.02098, 56.33378], [-115.02167, 56.33318], [-115.02257, 56.33266], [-115.02364, 56.33225], [-115.02482, 56.33196], [-115.02509, 56.33192], [-115.02508, 56.33148], [-115.02531, 56.33078], [-115.02578, 56.3301], [-115.02647, 56.3295], [-115.02712, 56.32913], [-115.02706, 56.32906], [-115.02679, 56.32835], [-115.02676, 56.32763], [-115.02699, 56.32693], [-115.02746, 56.32625], [-115.02816, 56.32565], [-115.02905, 56.32513], [-115.03012, 56.32472], [-115.03119, 56.32445], [-115.03105, 56.32434], [-115.03053, 56.32368], [-115.03025, 56.32297], [-115.03024, 56.32281], [-115.02985, 56.32278], [-115.02864, 56.32251], [-115.02755, 56.32213], [-115.02662, 56.32163], [-115.02588, 56.32104], [-115.02536, 56.32038], [-115.02508, 56.31967], [-115.02505, 56.31895], [-115.02528, 56.31825], [-115.02575, 56.31757], [-115.02644, 56.31697], [-115.02621, 56.31667], [-115.02617, 56.31656], [-115.02548, 56.31665], [-115.02419, 56.31666], [-115.02291, 56.31654], [-115.0217, 56.31627], [-115.02061, 56.31589], [-115.01968, 56.31539], [-115.01894, 56.3148], [-115.01842, 56.31414], [-115.01814, 56.31343], [-115.01811, 56.31271], [-115.01834, 56.31201], [-115.01853, 56.31174], [-115.01731, 56.31175], [-115.01603, 56.31163], [-115.01482, 56.31136], [-115.01373, 56.31098], [-115.0128, 56.31048], [-115.01206, 56.30989], [-115.01154, 56.30923], [-115.01129, 56.30861], [-115.01018, 56.30875], [-115.01434, 56.31586], [-115.0101, 56.31663], [-115.00872, 56.31427], [-115.00448, 56.31504], [-115.00586, 56.3174], [-114.996, 56.31657], [-114.99738, 56.31893], [-114.99027, 56.32282], [-114.98889, 56.32046], [-114.97902, 56.31964], [-114.97765, 56.31728], [-114.98475, 56.31339], [-114.98337, 56.31103], [-114.99048, 56.30714], [-114.9891, 56.30478], [-114.98486, 56.30555], [-114.98073, 56.29848], [-114.98497, 56.29771], [-114.98359, 56.29535], [-114.99631, 56.29305], [-114.99769, 56.29541], [-115.00617, 56.29388], [-115.00754, 56.29624], [-115.01178, 56.29547], [-115.01316, 56.29783], [-115.01309, 56.29788], [-115.01352, 56.29797], [-115.01417, 56.29782], [-115.01543, 56.29766], [-115.01672, 56.29765], [-115.018, 56.29777], [-115.01921, 56.29804], [-115.0203, 56.29842], [-115.02123, 56.29892], [-115.02197, 56.29951], [-115.02249, 56.30017], [-115.02262, 56.30051], [-115.02265, 56.30051], [-115.02393, 56.30063], [-115.02461, 56.30078], [-115.02477, 56.30054], [-115.02547, 56.29994], [-115.02614, 56.29955], [-115.02569, 56.29951], [-115.02449, 56.29924], [-115.02339, 56.29886], [-115.02246, 56.29836], [-115.02172, 56.29777], [-115.0212, 56.29711], [-115.02092, 56.2964], [-115.0209, 56.29568], [-115.02112, 56.29498], [-115.02159, 56.2943], [-115.02229, 56.2937], [-115.02319, 56.29318], [-115.02425, 56.29277], [-115.02543, 56.29248], [-115.0267, 56.29232]], [[-115.00544, 56.34191], [-115.00524, 56.34191], [-115.00544, 56.34193], [-115.00544, 56.34191]], [[-115.03794, 56.34539], [-115.039, 56.34498], [-115.03902, 56.34497], [-115.03881, 56.34445], [-115.03879, 56.34373], [-115.03901, 56.34303], [-115.03878, 56.34247], [-115.03876, 56.34175], [-115.03898, 56.34104], [-115.03945, 56.34037], [-115.04015, 56.33976], [-115.04105, 56.33924], [-115.04203, 56.33886], [-115.04132, 56.3387], [-115.04101, 56.33859], [-115.04051, 56.33903], [-115.03961, 56.33955], [-115.03855, 56.33996], [-115.03736, 56.34025], [-115.03651, 56.34036], [-115.03678, 56.34057], [-115.0373, 56.34123], [-115.03758, 56.34194], [-115.0376, 56.34266], [-115.03738, 56.34336], [-115.03691, 56.34403], [-115.03621, 56.34464], [-115.03531, 56.34516], [-115.03492, 56.34531], [-115.03577, 56.34561], [-115.03671, 56.34611], [-115.03676, 56.34615], [-115.03704, 56.34591], [-115.03794, 56.34539]], [[-115.04246, 56.33109], [-115.04249, 56.33107], [-115.0424, 56.33096], [-115.04246, 56.33109]], [[-115.04221, 56.32868], [-115.04268, 56.32801], [-115.04337, 56.3274], [-115.04354, 56.3273], [-115.04347, 56.3273], [-115.04226, 56.32703], [-115.04183, 56.32688], [-115.04197, 56.32724], [-115.042, 56.32795], [-115.04177, 56.32866], [-115.0413, 56.32933], [-115.04117, 56.32945], [-115.04172, 56.32988], [-115.04212, 56.3304], [-115.04201, 56.33011], [-115.04198, 56.32939], [-115.04221, 56.32868]], [[-115.05064, 56.32603], [-115.05068, 56.32598], [-115.05112, 56.32559], [-115.05097, 56.32558], [-115.05046, 56.32603], [-115.05029, 56.32613], [-115.05036, 56.32613], [-115.05037, 56.32614], [-115.05064, 56.32603]], [[-114.95464, 56.32618], [-114.95592, 56.32631], [-114.95692, 56.32652], [-114.95734, 56.32593], [-114.95804, 56.32533], [-114.95811, 56.32529], [-114.95791, 56.32533], [-114.95664, 56.32549], [-114.95535, 56.3255], [-114.95505, 56.32547], [-114.95416, 56.32598], [-114.95363, 56.32619], [-114.95464, 56.32618]]], [[[-114.97489, 56.31256], [-114.97913, 56.3118], [-114.98051, 56.31416], [-114.97627, 56.31492], [-114.97489, 56.31256]]]]}}]}