{"type": "FeatureCollection", "features": [{"type": "Feature", "properties": {"road": "QE2", "note": "approximate alignment used by the simulator"}, "geometry": {"type": "LineString", "coordinates": [[-113.49, 53.46], [-113.55, 53.27], [-113.47, 53.1], [-113.52, 52.84], [-113.58, 52.68], [-113.74, 52.47], [-113.81, 52.27], [-113.95, 52.03], [-114.11, 51.79], [-114.14, 51.66], [-114.01, 51.3], [-114.06, 51.1]]}}, {"type": "Feature", "properties": {"road": "HWY16W", "note": "approximate alignment used by the simulator"}, "geometry": {"type": "LineString", "coordinates": [[-113.55, 53.54], [-113.91, 53.54], [-114.0, 53.53], [-114.47, 53.56], [-115.3, 53.58]]}}, {"type": "Feature", "properties": {"road": "HWY16E", "note": "approximate alignment used by the simulator"}, "geometry": {"type": "LineString", "coordinates": [[-113.4, 53.54], [-113.32, 53.52], [-112.7, 53.5], [-112.05, 53.49]]}}, {"type": "Feature", "properties": {"road": "HWY2N", "note": "approximate alignment used by the simulator"}, "geometry": {"type": "LineString", "coordinates": [[-113.55, 53.58], [-113.63, 53.63], [-113.65, 53.8], [-113.86, 54.15]]}}, {"type": "Feature", "properties": {"road": "HWY15", "note": "approximate alignment used by the simulator"}, "geometry": {"type": "LineString", "coordinates": [[-113.4, 53.57], [-113.28, 53.65], [-113.21, 53.7], [-113.05, 53.76]]}}, {"type": "Feature", "properties": {"road": "DOWNTOWN_YEG", "note": "approximate alignment used by the simulator"}, "geometry": {"type": "LineString", "coordinates": [[-113.59, 53.544], [-113.53, 53.5446], [-113.49, 53.5418], [-113.44, 53.544]]}}]}