{"type":"FeatureCollection","features":[{"type":"Feature","properties":{"name":"Chatham"},"geometry":{"type":"Point","coordinates":[-65.46773,47.03444]}},{"type":"Feature","properties":{"name":"Clarenville"},"geometry":{"type":"Point","coordinates":[-53.95689,48.16333]}},{"type":"Feature","properties":{"name":"Comox"},"geometry":{"type":"Point","coordinates":[-124.92444,49.67083]}},{"type":"Feature","properties":{"name":"Esquimalt"},"geometry":{"type":"Point","coordinates":[-123.43439,48.43639]}},{"type":"Feature","properties":{"name":"Grand Bank"},"geometry":{"type":"Point","coordinates":[-55.75106,47.10028]}},{"type":"Feature","properties":{"name":"North Sydney"},"geometry":{"type":"Point","coordinates":[-60.23934,46.20889]}},{"type":"Feature","properties":{"name":"Caraquet"},"geometry":{"type":"Point","coordinates":[-64.92462,47.79639]}},{"type":"Feature","properties":{"name":"Chicoutimi"},"geometry":{"type":"Point","coordinates":[-71.05265,48.43]}},{"type":"Feature","properties":{"name":"Corner Brook"},"geometry":{"type":"Point","coordinates":[-57.93634,48.96056]}},{"type":"Feature","properties":{"name":"Digby"},"geometry":{"type":"Point","coordinates":[-65.7523,44.62528]}},{"type":"Feature","properties":{"name":"Harbour Grace"},"geometry":{"type":"Point","coordinates":[-53.21702,47.69028]}},{"type":"Feature","properties":{"name":"Pictou"},"geometry":{"type":"Point","coordinates":[-62.70442,45.67472]}},{"type":"Feature","properties":{"name":"Shelburne"},"geometry":{"type":"Point","coordinates":[-65.31773,43.74972]}},{"type":"Feature","properties":{"name":"Sorel"},"geometry":{"type":"Point","coordinates":[-73.11808,46.04111]}},{"type":"Feature","properties":{"name":"Springdale"},"geometry":{"type":"Point","coordinates":[-56.05989,49.49972]}},{"type":"Feature","properties":{"name":"Saint-John's"},"geometry":{"type":"Point","coordinates":[-52.69234,47.5625]}},{"type":"Feature","properties":{"name":"Trenton"},"geometry":{"type":"Point","coordinates":[-77.56,44.1]}},{"type":"Feature","properties":{"name":"Goderich"},"geometry":{"type":"Point","coordinates":[-81.73,43.75]}},{"type":"Feature","properties":{"name":"Midland"},"geometry":{"type":"Point","coordinates":[-79.91,44.75]}},{"type":"Feature","properties":{"name":"Campbell River"},"geometry":{"type":"Point","coordinates":[-125.23863,50.03194]}},{"type":"Feature","properties":{"name":"Goose Bay"},"geometry":{"type":"Point","coordinates":[-60.34234,53.38444]}},{"type":"Feature","properties":{"name":"Masset"},"geometry":{"type":"Point","coordinates":[-132.14111,54.00667]}},{"type":"Feature","properties":{"name":"Matane"},"geometry":{"type":"Point","coordinates":[-67.57126,48.84194]}},{"type":"Feature","properties":{"name":"Nanisivik"},"geometry":{"type":"Point","coordinates":[-84.54305,73.06861]}},{"type":"Feature","properties":{"name":"New Richmond"},"geometry":{"type":"Point","coordinates":[-65.83492,48.13861]}},{"type":"Feature","properties":{"name":"Port Hardy"},"geometry":{"type":"Point","coordinates":[-127.48369,50.72111]}},{"type":"Feature","properties":{"name":"Port Hawkesbury"},"geometry":{"type":"Point","coordinates":[-61.35565,45.61]}},{"type":"Feature","properties":{"name":"Squamish"},"geometry":{"type":"Point","coordinates":[-123.16667,49.68306]}},{"type":"Feature","properties":{"name":"Stephenville"},"geometry":{"type":"Point","coordinates":[-58.54075,48.53528]}},{"type":"Feature","properties":{"name":"Stewart"},"geometry":{"type":"Point","coordinates":[-129.98952,55.92861]}},{"type":"Feature","properties":{"name":"Tahsis"},"geometry":{"type":"Point","coordinates":[-126.65406,49.9175]}},{"type":"Feature","properties":{"name":"Sandspit"},"geometry":{"type":"Point","coordinates":[-131.81967,53.25528]}},{"type":"Feature","properties":{"name":"Tuktoyaktuk"},"geometry":{"type":"Point","coordinates":[-132.98581,69.43139]}},{"type":"Feature","properties":{"name":"Hamilton"},"geometry":{"type":"Point","coordinates":[-79.85,43.25]}},{"type":"Feature","properties":{"name":"Windsor"},"geometry":{"type":"Point","coordinates":[-83.03,42.31]}},{"type":"Feature","properties":{"name":"Rouge River"},"geometry":{"type":"Point","coordinates":[-83.11,42.28]}},{"type":"Feature","properties":{"name":"Owen Sound"},"geometry":{"type":"Point","coordinates":[-80.93,44.58]}},{"type":"Feature","properties":{"name":"Sault Ste Marie"},"geometry":{"type":"Point","coordinates":[-84.35,46.51]}},{"type":"Feature","properties":{"name":"Sault Ste Marie"},"geometry":{"type":"Point","coordinates":[-84.35,46.5]}},{"type":"Feature","properties":{"name":"Ocean Falls"},"geometry":{"type":"Point","coordinates":[-127.68881,52.35083]}},{"type":"Feature","properties":{"name":"Argentia"},"geometry":{"type":"Point","coordinates":[-53.98687,47.29306]}},{"type":"Feature","properties":{"name":"Bathurst"},"geometry":{"type":"Point","coordinates":[-65.65,47.61667]}},{"type":"Feature","properties":{"name":"Gaspe"},"geometry":{"type":"Point","coordinates":[-64.43722,48.82444]}},{"type":"Feature","properties":{"name":"Port Alberni"},"geometry":{"type":"Point","coordinates":[-124.81932,49.23]}},{"type":"Feature","properties":{"name":"Powell River"},"geometry":{"type":"Point","coordinates":[-124.52479,49.835]}},{"type":"Feature","properties":{"name":"Sept-Iles"},"geometry":{"type":"Point","coordinates":[-66.38386,50.20639]}},{"type":"Feature","properties":{"name":"Sydney"},"geometry":{"type":"Point","coordinates":[-60.203,46.14194]}},{"type":"Feature","properties":{"name":"Trois-Rivieres (Three Rivers)"},"geometry":{"type":"Point","coordinates":[-72.53899,46.33583]}},{"type":"Feature","properties":{"name":"Yarmouth"},"geometry":{"type":"Point","coordinates":[-66.12091,43.83556]}},{"type":"Feature","properties":{"name":"Rimouski"},"geometry":{"type":"Point","coordinates":[-68.50813,48.47778]}},{"type":"Feature","properties":{"name":"Riviere-du-Loup"},"geometry":{"type":"Point","coordinates":[-69.56808,47.84667]}},{"type":"Feature","properties":{"name":"Saint-Anthony"},"geometry":{"type":"Point","coordinates":[-55.57709,51.36667]}},{"type":"Feature","properties":{"name":"Summerside"},"geometry":{"type":"Point","coordinates":[-63.78704,46.38861]}},{"type":"Feature","properties":{"name":"Charlottetown"},"geometry":{"type":"Point","coordinates":[-63.11896,46.23167]}},{"type":"Feature","properties":{"name":"Halifax"},"geometry":{"type":"Point","coordinates":[-63.57444,44.65694]}},{"type":"Feature","properties":{"name":"Nanaimo"},"geometry":{"type":"Point","coordinates":[-123.92638,49.16944]}},{"type":"Feature","properties":{"name":"Quebec"},"geometry":{"type":"Point","coordinates":[-71.20901,46.80583]}},{"type":"Feature","properties":{"name":"Victoria"},"geometry":{"type":"Point","coordinates":[-123.40654,48.43111]}},{"type":"Feature","properties":{"name":"Prince Rupert"},"geometry":{"type":"Point","coordinates":[-130.33704,54.30972]}},{"type":"Feature","properties":{"name":"Saint-John"},"geometry":{"type":"Point","coordinates":[-66.05989,45.26778]}},{"type":"Feature","properties":{"name":"Ottawa"},"geometry":{"type":"Point","coordinates":[-75.7,45.43]}},{"type":"Feature","properties":{"name":"Buffalo"},"geometry":{"type":"Point","coordinates":[-78.88,42.88]}},{"type":"Feature","properties":{"name":"Montreal"},"geometry":{"type":"Point","coordinates":[-73.52462,45.54361]}},{"type":"Feature","properties":{"name":"Detroit"},"geometry":{"type":"Point","coordinates":[-83.03,42.33]}},{"type":"Feature","properties":{"name":"Vancouver"},"geometry":{"type":"Point","coordinates":[-123.07144,49.29778]}},{"type":"Feature","properties":{"name":"Liverpool"},"geometry":{"type":"Point","coordinates":[-64.70371,44.04333]}},{"type":"Feature","properties":{"name":"Toronto"},"geometry":{"type":"Point","coordinates":[-79.38,43.61]}}]}