{"type": "FeatureCollection", "features": [{"type": "Feature", "properties": {"site_id": "YEG", "name": "Edmonton International Airport (CYEG)", "zone": "alert_zone", "radius_m": 3000}, "geometry": {"type": "Polygon", "coordinates": [[[-113.58, 53.336649], [-113.576069, 53.336547], [-113.572168, 53.33624], [-113.568326, 53.335731], [-113.564573, 53.335024], [-113.560938, 53.334124], [-113.557448, 53.333039], [-113.554129, 53.331776], [-113.551008, 53.330344], [-113.548106, 53.328756], [-113.545448, 53.327023], [-113.543053, 53.325158], [-113.540939, 53.323175], [-113.539122, 53.321089], [-113.537616, 53.318917], [-113.536433, 53.316675], [-113.535581, 53.31438], [-113.535067, 53.312049], [-113.534896, 53.3097], [-113.535067, 53.307351], [-113.535581, 53.30502], [-113.536433, 53.302725], [-113.537616, 53.300483], [-113.539122, 53.298311], [-113.540939, 53.296225], [-113.543053, 53.294242], [-113.545448, 53.292377], [-113.548106, 53.290644], [-113.551008, 53.289056], [-113.554129, 53.287624], [-113.557448, 53.286361], [-113.560938, 53.285276], [-113.564573, 53.284376], [-113.568326, 53.283669], [-113.572168, 53.28316], [-113.576069, 53.282853], [-113.58, 53.282751], [-113.583931, 53.282853], [-113.587832, 53.28316], [-113.591674, 53.283669], [-113.595427, 53.284376], [-113.599062, 53.285276], [-113.602552, 53.286361], [-113.605871, 53.287624], [-113.608992, 53.289056], [-113.611894, 53.290644], [-113.614552, 53.292377], [-113.616947, 53.294242], [-113.619061, 53.296225], [-113.620878, 53.298311], [-113.622384, 53.300483], [-113.623567, 53.302725], [-113.624419, 53.30502], [-113.624933, 53.307351], [-113.625104, 53.3097], [-113.624933, 53.312049], [-113.624419, 53.31438], [-113.623567, 53.316675], [-113.622384, 53.318917], [-113.620878, 53.321089], [-113.619061, 53.323175], [-113.616947, 53.325158], [-113.614552, 53.327023], [-113.611894, 53.328756], [-113.608992, 53.330344], [-113.605871, 53.331776], [-113.602552, 53.333039], [-113.599062, 53.334124], [-113.595427, 53.335024], [-113.591674, 53.335731], [-113.587832, 53.33624], [-113.583931, 53.336547], [-113.58, 53.336649]]]}}, {"type": "Feature", "properties": {"site_id": "YEG", "name": "Edmonton International Airport (CYEG)", "zone": "advisory_zone", "radius_m": 5600}, "geometry": {"type": "Polygon", "coordinates": [[[-113.58, 53.360005], [-113.572662, 53.359814], [-113.56538, 53.359241], [-113.558209, 53.358291], [-113.551204, 53.356972], [-113.544418, 53.355292], [-113.537903, 53.353266], [-113.531708, 53.350908], [-113.525881, 53.348236], [-113.520465, 53.345271], [-113.515503, 53.342036], [-113.511032, 53.338554], [-113.507085, 53.334853], [-113.503694, 53.33096], [-113.500883, 53.326905], [-113.498674, 53.32272], [-113.497084, 53.318435], [-113.496126, 53.314084], [-113.495805, 53.3097], [-113.496126, 53.305316], [-113.497084, 53.300965], [-113.498674, 53.29668], [-113.500883, 53.292495], [-113.503694, 53.28844], [-113.507085, 53.284547], [-113.511032, 53.280846], [-113.515503, 53.277364], [-113.520465, 53.274129], [-113.525881, 53.271164], [-113.531708, 53.268492], [-113.537903, 53.266134], [-113.544418, 53.264108], [-113.551204, 53.262428], [-113.558209, 53.261109], [-113.56538, 53.260159], [-113.572662, 53.259586], [-113.58, 53.259395], [-113.587338, 53.259586], [-113.59462, 53.260159], [-113.601791, 53.261109], [-113.608796, 53.262428], [-113.615582, 53.264108], [-113.622097, 53.266134], [-113.628292, 53.268492], [-113.634119, 53.271164], [-113.639535, 53.274129], [-113.644497, 53.277364], [-113.648968, 53.280846], [-113.652915, 53.284547], [-113.656306, 53.28844], [-113.659117, 53.292495], [-113.661326, 53.29668], [-113.662916, 53.300965], [-113.663874, 53.305316], [-113.664195, 53.3097], [-113.663874, 53.314084], [-113.662916, 53.318435], [-113.661326, 53.32272], [-113.659117, 53.326905], [-113.656306, 53.33096], [-113.652915, 53.334853], [-113.648968, 53.338554], [-113.644497, 53.342036], [-113.639535, 53.345271], [-113.634119, 53.348236], [-113.628292, 53.350908], [-113.622097, 53.353266], [-113.615582, 53.355292], [-113.608796, 53.356972], [-113.601791, 53.358291], [-113.59462, 53.359241], [-113.587338, 53.359814], [-113.58, 53.360005]]]}}, {"type": "Feature", "properties": {"site_id": "GEN", "name": "Genesee Generating Station", "zone": "alert_zone", "radius_m": 1000}, "geometry": {"type": "Polygon", "coordinates": [[[-114.3049, 53.353583], [-114.303589, 53.353549], [-114.302287, 53.353447], [-114.301006, 53.353277], [-114.299754, 53.353041], [-114.298541, 53.352741], [-114.297376, 53.35238], [-114.296269, 53.351959], [-114.295228, 53.351481], [-114.29426, 53.350952], [-114.293373, 53.350374], [-114.292574, 53.349753], [-114.291869, 53.349092], [-114.291263, 53.348396], [-114.29076, 53.347672], [-114.290366, 53.346925], [-114.290082, 53.34616], [-114.28991, 53.345383], [-114.289853, 53.3446], [-114.28991, 53.343817], [-114.290082, 53.34304], [-114.290366, 53.342275], [-114.29076, 53.341528], [-114.291263, 53.340804], [-114.291869, 53.340108], [-114.292574, 53.339447], [-114.293373, 53.338826], [-114.29426, 53.338248], [-114.295228, 53.337719], [-114.296269, 53.337241], [-114.297376, 53.33682], [-114.298541, 53.336459], [-114.299754, 53.336159], [-114.301006, 53.335923], [-114.302287, 53.335753], [-114.303589, 53.335651], [-114.3049, 53.335617], [-114.306211, 53.335651], [-114.307513, 53.335753], [-114.308794, 53.335923], [-114.310046, 53.336159], [-114.311259, 53.336459], [-114.312424, 53.33682], [-114.313531, 53.337241], [-114.314572, 53.337719], [-114.31554, 53.338248], [-114.316427, 53.338826], [-114.317226, 53.339447], [-114.317931, 53.340108], [-114.318537, 53.340804], [-114.31904, 53.341528], [-114.319434, 53.342275], [-114.319718, 53.34304], [-114.31989, 53.343817], [-114.319947, 53.3446], [-114.31989, 53.345383], [-114.319718, 53.34616], [-114.319434, 53.346925], [-114.31904, 53.347672], [-114.318537, 53.348396], [-114.317931, 53.349092], [-114.317226, 53.349753], [-114.316427, 53.350374], [-114.31554, 53.350952], [-114.314572, 53.351481], [-114.313531, 53.351959], [-114.312424, 53.35238], [-114.311259, 53.352741], [-114.310046, 53.353041], [-114.308794, 53.353277], [-114.307513, 53.353447], [-114.306211, 53.353549], [-114.3049, 53.353583]]]}}, {"type": "Feature", "properties": {"site_id": "RAH", "name": "Royal Alexandra Hospital Heliport (CFH7)", "zone": "alert_zone", "radius_m": 1000}, "geometry": {"type": "Polygon", "coordinates": [[[-113.4966, 53.566883], [-113.495282, 53.566849], [-113.493974, 53.566747], [-113.492686, 53.566577], [-113.491428, 53.566341], [-113.490209, 53.566041], [-113.489039, 53.56568], [-113.487926, 53.565259], [-113.486879, 53.564781], [-113.485907, 53.564252], [-113.485015, 53.563674], [-113.484212, 53.563053], [-113.483503, 53.562392], [-113.482894, 53.561696], [-113.482389, 53.560972], [-113.481992, 53.560225], [-113.481707, 53.55946], [-113.481535, 53.558683], [-113.481477, 53.5579], [-113.481535, 53.557117], [-113.481707, 53.55634], [-113.481992, 53.555575], [-113.482389, 53.554828], [-113.482894, 53.554104], [-113.483503, 53.553408], [-113.484212, 53.552747], [-113.485015, 53.552126], [-113.485907, 53.551548], [-113.486879, 53.551019], [-113.487926, 53.550541], [-113.489039, 53.55012], [-113.490209, 53.549759], [-113.491428, 53.549459], [-113.492686, 53.549223], [-113.493974, 53.549053], [-113.495282, 53.548951], [-113.4966, 53.548917], [-113.497918, 53.548951], [-113.499226, 53.549053], [-113.500514, 53.549223], [-113.501772, 53.549459], [-113.502991, 53.549759], [-113.504161, 53.55012], [-113.505274, 53.550541], [-113.506321, 53.551019], [-113.507293, 53.551548], [-113.508185, 53.552126], [-113.508988, 53.552747], [-113.509697, 53.553408], [-113.510306, 53.554104], [-113.510811, 53.554828], [-113.511208, 53.555575], [-113.511493, 53.55634], [-113.511665, 53.557117], [-113.511723, 53.5579], [-113.511665, 53.558683], [-113.511493, 53.55946], [-113.511208, 53.560225], [-113.510811, 53.560972], [-113.510306, 53.561696], [-113.509697, 53.562392], [-113.508988, 53.563053], [-113.508185, 53.563674], [-113.507293, 53.564252], [-113.506321, 53.564781], [-113.505274, 53.565259], [-113.504161, 53.56568], [-113.502991, 53.566041], [-113.501772, 53.566341], [-113.500514, 53.566577], [-113.499226, 53.566747], [-113.497918, 53.566849], [-113.4966, 53.566883]]]}}, {"type": "Feature", "properties": {"site_id": "RAH", "name": "Royal Alexandra Hospital Heliport (CFH7)", "zone": "advisory_zone", "radius_m": 1900}, "geometry": {"type": "Polygon", "coordinates": [[[-113.4966, 53.574968], [-113.494096, 53.574903], [-113.491611, 53.574709], [-113.489163, 53.574386], [-113.486773, 53.573939], [-113.484457, 53.573369], [-113.482233, 53.572681], [-113.480119, 53.571881], [-113.478131, 53.570975], [-113.476282, 53.569969], [-113.474589, 53.568871], [-113.473063, 53.56769], [-113.471716, 53.566434], [-113.470559, 53.565113], [-113.469599, 53.563738], [-113.468846, 53.562318], [-113.468303, 53.560864], [-113.467976, 53.559388], [-113.467867, 53.5579], [-113.467976, 53.556412], [-113.468303, 53.554936], [-113.468846, 53.553482], [-113.469599, 53.552062], [-113.470559, 53.550687], [-113.471716, 53.549366], [-113.473063, 53.54811], [-113.474589, 53.546929], [-113.476282, 53.545831], [-113.478131, 53.544825], [-113.480119, 53.543919], [-113.482233, 53.543119], [-113.484457, 53.542431], [-113.486773, 53.541861], [-113.489163, 53.541414], [-113.491611, 53.541091], [-113.494096, 53.540897], [-113.4966, 53.540832], [-113.499104, 53.540897], [-113.501589, 53.541091], [-113.504037, 53.541414], [-113.506427, 53.541861], [-113.508743, 53.542431], [-113.510967, 53.543119], [-113.513081, 53.543919], [-113.515069, 53.544825], [-113.516918, 53.545831], [-113.518611, 53.546929], [-113.520137, 53.54811], [-113.521484, 53.549366], [-113.522641, 53.550687], [-113.523601, 53.552062], [-113.524354, 53.553482], [-113.524897, 53.554936], [-113.525224, 53.556412], [-113.525333, 53.5579], [-113.525224, 53.559388], [-113.524897, 53.560864], [-113.524354, 53.562318], [-113.523601, 53.563738], [-113.522641, 53.565113], [-113.521484, 53.566434], [-113.520137, 53.56769], [-113.518611, 53.568871], [-113.516918, 53.569969], [-113.515069, 53.570975], [-113.513081, 53.571881], [-113.510967, 53.572681], [-113.508743, 53.573369], [-113.506427, 53.573939], [-113.504037, 53.574386], [-113.501589, 53.574709], [-113.499104, 53.574903], [-113.4966, 53.574968]]]}}]}