{"type":"FeatureCollection","features":[{"type":"Feature","properties":{"fire_id":"PRC-001","scan_time":"2030-05-05T04:00:00Z","mapped_area_ha":590,"source":"airborne IR scan (synthetic)"},"geometry":{"type":"Polygon","coordinates":[[[-114.92572,55.19174],[-114.92439,55.18939],[-114.9285,55.18862],[-114.92717,55.18627],[-114.92306,55.18703],[-114.92451,55.18157],[-114.93273,55.18004],[-114.93406,55.18239],[-114.93817,55.18163],[-114.93551,55.17693],[-114.9314,55.17769],[-114.93006,55.17534],[-114.92595,55.1761],[-114.92729,55.17845],[-114.91773,55.17762],[-114.91918,55.17215],[-114.91096,55.17368],[-114.90419,55.16973],[-114.90008,55.17049],[-114.90407,55.17755],[-114.89995,55.17832],[-114.90128,55.18067],[-114.89306,55.18219],[-114.89173,55.17984],[-114.87939,55.18212],[-114.87806,55.17977],[-114.87395,55.18053],[-114.87927,55.18994],[-114.87515,55.1907],[-114.87781,55.19541],[-114.88604,55.19389],[-114.88737,55.19624],[-114.8956,55.19472],[-114.89693,55.19707],[-114.90104,55.19631],[-114.89971,55.19396],[-114.92572,55.19174]]]}},{"type":"Feature","properties":{"fire_id":"PRC-001","scan_time":"2030-05-06T04:00:00Z","mapped_area_ha":3560,"source":"airborne IR scan (synthetic)"},"geometry":{"type":"MultiPolygon","coordinates":[[[[-114.85365,55.16868],[-114.85232,55.16633],[-114.85643,55.16557],[-114.85776,55.16793],[-114.85365,55.16868]]],[[[-114.87009,55.16565],[-114.86877,55.16329],[-114.87288,55.16253],[-114.87421,55.16489],[-114.87832,55.16413],[-114.87699,55.16177],[-114.88521,55.16025],[-114.88654,55.1626],[-114.89887,55.16032],[-114.89754,55.15797],[-114.90165,55.15721],[-114.90431,55.16191],[-114.90842,55.16115],[-114.90975,55.1635],[-114.91797,55.16198],[-114.9193,55.16433],[-114.92341,55.16357],[-114.92208,55.16122],[-114.92619,55.16046],[-114.92752,55.16281],[-114.93574,55.16129],[-114.9344,55.15893],[-114.93851,55.15817],[-114.95073,55.1637],[-114.95895,55.16218],[-114.96028,55.16453],[-114.95617,55.16529],[-114.95884,55.17],[-114.96295,55.16923],[-114.96428,55.17158],[-114.97116,55.16771],[-114.98339,55.17323],[-114.97928,55.174],[-114.98061,55.17635],[-114.97095,55.18335],[-114.97362,55.18805],[-114.9654,55.18958],[-114.96673,55.19193],[-114.95851,55.19346],[-114.95984,55.19581],[-114.94751,55.1981],[-114.94073,55.19416],[-114.9325,55.19568],[-114.93383,55.19804],[-114.90092,55.20413],[-114.90225,55.20648],[-114.88991,55.20877],[-114.88567,55.21735],[-114.87743,55.21887],[-114.87876,55.22122],[-114.86641,55.2235],[-114.86508,55.22115],[-114.8692,55.22039],[-114.86787,55.21804],[-114.86375,55.2188],[-114.86521,55.21333],[-114.86109,55.21409],[-114.85432,55.21014],[-114.84609,55.21166],[-114.84078,55.20224],[-114.84489,55.20149],[-114.83812,55.19754],[-114.84635,55.19602],[-114.84503,55.19367],[-114.85193,55.18979],[-114.84927,55.18509],[-114.85339,55.18433],[-114.8494,55.17726],[-114.84529,55.17802],[-114.84397,55.17567],[-114.84808,55.17491],[-114.84675,55.17256],[-114.8563,55.17339],[-114.85776,55.16793],[-114.87009,55.16565]]]]}},{"type":"Feature","properties":{"fire_id":"PRC-002","scan_time":"2030-05-06T04:00:00Z","mapped_area_ha":460,"source":"airborne IR scan (synthetic)"},"geometry":{"type":"Polygon","coordinates":[[[-111.55944,56.66641],[-111.55828,56.66402],[-111.56699,56.66274],[-111.56583,56.66034],[-111.57018,56.6597],[-111.5667,56.65251],[-111.57425,56.64884],[-111.57309,56.64644],[-111.55771,56.64356],[-111.55975,56.63813],[-111.55105,56.63941],[-111.5522,56.6418],[-111.53596,56.64675],[-111.53943,56.65395],[-111.54378,56.65331],[-111.54494,56.6557],[-111.54059,56.65634],[-111.54291,56.66114],[-111.53855,56.66178],[-111.53971,56.66417],[-111.54406,56.66353],[-111.54203,56.66897],[-111.55944,56.66641]]]}},{"type":"Feature","properties":{"fire_id":"PRC-003","scan_time":"2030-05-06T04:00:00Z","mapped_area_ha":490,"source":"airborne IR scan (synthetic)"},"geometry":{"type":"MultiPolygon","coordinates":[[[[-114.98475,56.31339],[-114.98337,56.31103],[-114.99048,56.30714],[-114.9891,56.30478],[-114.98486,56.30555],[-114.98073,56.29848],[-114.98497,56.29771],[-114.98359,56.29535],[-114.99631,56.29305],[-114.99769,56.29541],[-115.00617,56.29388],[-115.00754,56.29624],[-115.01178,56.29547],[-115.01316,56.29783],[-115.0032,56.30484],[-115.00458,56.3072],[-115.00882,56.30643],[-115.01434,56.31586],[-115.0101,56.31663],[-115.00872,56.31427],[-115.00448,56.31504],[-115.00586,56.3174],[-114.996,56.31657],[-114.99738,56.31893],[-114.99027,56.32282],[-114.98889,56.32046],[-114.97902,56.31964],[-114.97765,56.31728],[-114.98475,56.31339]]],[[[-114.97627,56.31492],[-114.97489,56.31256],[-114.97913,56.3118],[-114.98051,56.31416],[-114.97627,56.31492]]]]}},{"type":"Feature","properties":{"fire_id":"PRC-001","scan_time":"2030-05-07T04:00:00Z","mapped_area_ha":13840,"source":"airborne IR scan (synthetic)"},"geometry":{"type":"Polygon","coordinates":[[[-114.96219,55.22398],[-114.96085,55.22163],[-114.96908,55.2201],[-114.97331,55.21151],[-114.98565,55.20922],[-114.98698,55.21157],[-114.99655,55.2124],[-114.99521,55.21004],[-115.00344,55.20851],[-115.0021,55.20616],[-115.01444,55.20387],[-115.0131,55.20151],[-115.02132,55.19998],[-115.01998,55.19763],[-115.01587,55.1984],[-115.0132,55.19369],[-114.99408,55.19205],[-114.98462,55.18341],[-114.9915,55.17953],[-114.99017,55.17717],[-114.98606,55.17794],[-114.9875,55.17247],[-114.99572,55.17094],[-114.99705,55.17329],[-115.00116,55.17253],[-114.99982,55.17018],[-115.01215,55.16788],[-115.01081,55.16553],[-115.02858,55.16482],[-115.02591,55.16011],[-115.0218,55.16088],[-115.02046,55.15853],[-115.02457,55.15776],[-115.02056,55.15071],[-115.01645,55.15147],[-115.01511,55.14912],[-115.02199,55.14524],[-115.02065,55.14289],[-115.01655,55.14365],[-115.01798,55.13819],[-115.00299,55.13578],[-115.00176,55.12561],[-114.99765,55.12637],[-114.99088,55.12243],[-114.97857,55.12473],[-114.9718,55.12079],[-114.95128,55.1246],[-114.94451,55.12066],[-114.9363,55.12219],[-114.93497,55.11983],[-114.92676,55.12136],[-114.92543,55.11901],[-114.91312,55.12129],[-114.91179,55.11894],[-114.89947,55.12122],[-114.9008,55.12357],[-114.88571,55.12897],[-114.88438,55.12662],[-114.87617,55.12814],[-114.87484,55.12579],[-114.87073,55.12655],[-114.85854,55.12101],[-114.82569,55.12708],[-114.82701,55.12943],[-114.81879,55.13095],[-114.82012,55.1333],[-114.81601,55.13406],[-114.81176,55.14264],[-114.80354,55.14415],[-114.80619,55.14886],[-114.80208,55.14962],[-114.80883,55.15357],[-114.81705,55.15205],[-114.81838,55.15441],[-114.82249,55.15365],[-114.82381,55.156],[-114.8197,55.15676],[-114.82103,55.15912],[-114.82514,55.15836],[-114.82368,55.16382],[-114.82779,55.16306],[-114.82911,55.16542],[-114.83601,55.16155],[-114.84277,55.1655],[-114.83866,55.16625],[-114.83999,55.16861],[-114.83588,55.16937],[-114.83455,55.16701],[-114.83044,55.16777],[-114.83176,55.17013],[-114.82354,55.17164],[-114.82486,55.174],[-114.82075,55.17476],[-114.8234,55.17946],[-114.81929,55.18022],[-114.82061,55.18258],[-114.81092,55.18956],[-114.82033,55.19822],[-114.81622,55.19898],[-114.81475,55.20444],[-114.8024,55.20672],[-114.80373,55.20907],[-114.79549,55.21059],[-114.80903,55.21849],[-114.80491,55.21925],[-114.80756,55.22395],[-114.80344,55.22471],[-114.80197,55.23018],[-114.81845,55.22715],[-114.81978,55.2295],[-114.8239,55.22874],[-114.82655,55.23345],[-114.81685,55.24044],[-114.82083,55.2475],[-114.83319,55.24522],[-114.83186,55.24287],[-114.83598,55.24211],[-114.83731,55.24446],[-114.84967,55.24219],[-114.851,55.24454],[-114.86336,55.24226],[-114.86482,55.23679],[-114.87306,55.23527],[-114.87439,55.23763],[-114.87851,55.23687],[-114.87718,55.23451],[-114.89498,55.23382],[-114.89365,55.23147],[-114.89777,55.23071],[-114.89644,55.22836],[-114.89232,55.22912],[-114.89378,55.22365],[-114.92259,55.21832],[-114.92126,55.21596],[-114.92816,55.21209],[-114.92949,55.21444],[-114.9336,55.21368],[-114.93494,55.21603],[-114.92804,55.21991],[-114.92937,55.22226],[-114.93349,55.2215],[-114.93616,55.2262],[-114.94439,55.22468],[-114.94573,55.22703],[-114.96219,55.22398]]]}},{"type":"Feature","properties":{"fire_id":"PRC-002","scan_time":"2030-05-07T04:00:00Z","mapped_area_ha":2550,"source":"airborne IR scan (synthetic)"},"geometry":{"type":"Polygon","coordinates":[[[-111.53591,56.68527],[-111.53475,56.68287],[-111.53911,56.68223],[-111.53679,56.67744],[-111.53244,56.67807],[-111.53448,56.67264],[-111.53883,56.672],[-111.53999,56.6744],[-111.5487,56.67312],[-111.54754,56.67073],[-111.55189,56.67009],[-111.55074,56.66769],[-111.55944,56.66641],[-111.55828,56.66402],[-111.57134,56.6621],[-111.5725,56.6645],[-111.58237,56.66562],[-111.58121,56.66322],[-111.58556,56.66258],[-111.58759,56.65715],[-111.5963,56.65587],[-111.59513,56.65347],[-111.59949,56.65283],[-111.59716,56.64804],[-111.60151,56.6474],[-111.60035,56.645],[-111.596,56.64564],[-111.58382,56.63973],[-111.57947,56.64037],[-111.58063,56.64276],[-111.57077,56.64165],[-111.56845,56.63685],[-111.55308,56.63397],[-111.55076,56.62918],[-111.54641,56.62982],[-111.54757,56.63221],[-111.54322,56.63285],[-111.54206,56.63046],[-111.53771,56.63109],[-111.53887,56.63349],[-111.52147,56.63604],[-111.52263,56.63844],[-111.51393,56.63971],[-111.51277,56.63731],[-111.50842,56.63795],[-111.50638,56.64338],[-111.49652,56.64226],[-111.49998,56.64945],[-111.49563,56.65009],[-111.49679,56.65249],[-111.48373,56.65439],[-111.48488,56.65679],[-111.47617,56.65806],[-111.47733,56.66046],[-111.46657,56.66716],[-111.46772,56.66956],[-111.47208,56.66893],[-111.47323,56.67132],[-111.46888,56.67196],[-111.47118,56.67676],[-111.48105,56.67788],[-111.4758,56.68635],[-111.48452,56.68508],[-111.48567,56.68748],[-111.49003,56.68684],[-111.49528,56.67837],[-111.50399,56.6771],[-111.50283,56.6747],[-111.51154,56.67343],[-111.51039,56.67103],[-111.51474,56.67039],[-111.52141,56.67455],[-111.51706,56.67519],[-111.51181,56.68366],[-111.51617,56.68302],[-111.52284,56.68718],[-111.53591,56.68527]]]}},{"type":"Feature","properties":{"fire_id":"PRC-001","scan_time":"2030-05-08T04:00:00Z","mapped_area_ha":36960,"source":"airborne IR scan (synthetic)"},"geometry":{"type":"Polygon","coordinates":[[[-114.96186,55.24744],[-114.95919,55.24274],[-114.96331,55.24197],[-114.96753,55.23339],[-114.97577,55.23186],[-114.9771,55.23421],[-114.98122,55.23345],[-114.98266,55.22798],[-114.98678,55.22722],[-114.98812,55.22957],[-114.99501,55.22569],[-114.99635,55.22804],[-115.00046,55.22727],[-115.0018,55.22963],[-114.99768,55.23039],[-115.00448,55.23433],[-115.00859,55.23357],[-115.00725,55.23121],[-115.01549,55.22968],[-115.01682,55.23203],[-115.02094,55.23127],[-115.01826,55.22657],[-115.02238,55.2258],[-115.02104,55.22345],[-115.02926,55.22192],[-115.03347,55.21333],[-115.0417,55.2118],[-115.04036,55.20944],[-115.05001,55.20244],[-115.04733,55.19774],[-115.05144,55.19697],[-115.05287,55.1915],[-115.06109,55.18997],[-115.05841,55.18527],[-115.06252,55.1845],[-115.0585,55.17744],[-115.05028,55.17898],[-115.04894,55.17663],[-115.04483,55.17739],[-115.04349,55.17504],[-115.0476,55.17428],[-115.04224,55.16487],[-115.04635,55.1641],[-115.04778,55.15863],[-115.05733,55.15945],[-115.05331,55.1524],[-115.05742,55.15163],[-115.05608,55.14928],[-115.06571,55.14228],[-115.06304,55.13758],[-115.06714,55.13681],[-115.06036,55.13287],[-115.06723,55.12899],[-115.06455,55.12429],[-115.06865,55.12352],[-115.06463,55.11647],[-115.06053,55.11723],[-115.04841,55.1039],[-115.0361,55.10619],[-115.03477,55.10384],[-115.02523,55.10302],[-115.01989,55.09362],[-115.01579,55.09438],[-115.00779,55.08028],[-115.00369,55.08104],[-115.00502,55.08339],[-114.99549,55.08257],[-114.99149,55.07552],[-114.98196,55.07469],[-114.96445,55.05976],[-114.96035,55.06052],[-114.96168,55.06288],[-114.95349,55.0644],[-114.95216,55.06205],[-114.94264,55.06122],[-114.93998,55.05652],[-114.93178,55.05804],[-114.93046,55.05569],[-114.92636,55.05645],[-114.92503,55.0541],[-114.92093,55.05486],[-114.90876,55.04933],[-114.90057,55.05085],[-114.90454,55.05791],[-114.91407,55.05874],[-114.91672,55.06344],[-114.92082,55.06268],[-114.9248,55.06974],[-114.9207,55.0705],[-114.92336,55.07521],[-114.91926,55.07597],[-114.91781,55.08143],[-114.91371,55.08219],[-114.91238,55.07984],[-114.90828,55.0806],[-114.90696,55.07825],[-114.90286,55.07901],[-114.90153,55.07666],[-114.88658,55.07424],[-114.8826,55.06718],[-114.8744,55.0687],[-114.87572,55.07105],[-114.8662,55.07022],[-114.86752,55.07257],[-114.86342,55.07333],[-114.8621,55.07098],[-114.858,55.07174],[-114.85668,55.06939],[-114.85258,55.07014],[-114.85125,55.06779],[-114.84715,55.06855],[-114.83498,55.06301],[-114.83088,55.06377],[-114.82943,55.06923],[-114.82122,55.07075],[-114.82255,55.0731],[-114.81434,55.07462],[-114.81302,55.07226],[-114.79808,55.06983],[-114.7994,55.07218],[-114.79529,55.07294],[-114.79661,55.07529],[-114.78694,55.08227],[-114.78958,55.08698],[-114.78548,55.08774],[-114.7868,55.09009],[-114.77185,55.08765],[-114.77712,55.09707],[-114.77302,55.09783],[-114.77434,55.10018],[-114.76612,55.10169],[-114.76876,55.1064],[-114.76466,55.10716],[-114.76597,55.10951],[-114.75365,55.11178],[-114.75234,55.10943],[-114.7428,55.10858],[-114.75071,55.12271],[-114.7466,55.12347],[-114.74234,55.13204],[-114.75188,55.13288],[-114.7532,55.13524],[-114.74909,55.13599],[-114.7504,55.13835],[-114.75451,55.13759],[-114.75583,55.13995],[-114.75172,55.1407],[-114.75568,55.14777],[-114.75979,55.14701],[-114.76111,55.14937],[-114.77609,55.15181],[-114.77462,55.15727],[-114.78416,55.15811],[-114.78681,55.16282],[-114.7827,55.16358],[-114.78123,55.16904],[-114.77168,55.1682],[-114.773,55.17056],[-114.76609,55.17443],[-114.76874,55.17913],[-114.76462,55.17989],[-114.76594,55.18225],[-114.73713,55.18754],[-114.73581,55.18518],[-114.7317,55.18594],[-114.72774,55.17887],[-114.71951,55.18038],[-114.72083,55.18273],[-114.71391,55.1866],[-114.72051,55.19838],[-114.73006,55.19922],[-114.73138,55.20158],[-114.72726,55.20233],[-114.7299,55.20704],[-114.72579,55.2078],[-114.72711,55.21015],[-114.71887,55.21166],[-114.71739,55.21713],[-114.70783,55.21628],[-114.70915,55.21864],[-114.70503,55.21939],[-114.71179,55.22335],[-114.69794,55.23107],[-114.7019,55.23814],[-114.69777,55.2389],[-114.69629,55.24436],[-114.70041,55.24361],[-114.70173,55.24596],[-114.70998,55.24446],[-114.7113,55.24681],[-114.71542,55.24606],[-114.7141,55.2437],[-114.72235,55.24219],[-114.72367,55.24455],[-114.72779,55.24379],[-114.73176,55.25086],[-114.72483,55.25472],[-114.7316,55.25868],[-114.73985,55.25717],[-114.73852,55.25481],[-114.74677,55.2533],[-114.74545,55.25095],[-114.74957,55.25019],[-114.7509,55.25255],[-114.75502,55.25179],[-114.7537,55.24944],[-114.76606,55.24717],[-114.76739,55.24952],[-114.77151,55.24877],[-114.77283,55.25112],[-114.76311,55.2581],[-114.76576,55.26281],[-114.76164,55.26357],[-114.76296,55.26592],[-114.77121,55.26441],[-114.77254,55.26677],[-114.78756,55.26921],[-114.78889,55.27156],[-114.78476,55.27232],[-114.78741,55.27703],[-114.80391,55.274],[-114.80259,55.27164],[-114.81776,55.26626],[-114.82999,55.2718],[-114.83411,55.27104],[-114.83278,55.26869],[-114.84515,55.26641],[-114.84382,55.26406],[-114.85619,55.26178],[-114.85752,55.26413],[-114.86577,55.26261],[-114.86443,55.26026],[-114.87268,55.25874],[-114.87401,55.26109],[-114.88916,55.2557],[-114.89595,55.25964],[-114.90419,55.25812],[-114.90286,55.25577],[-114.91522,55.25348],[-114.91388,55.25113],[-114.92903,55.24573],[-114.94127,55.25126],[-114.94951,55.24973],[-114.94817,55.24738],[-114.95641,55.24585],[-114.95775,55.24821],[-114.96186,55.24744]],[[-114.76077,55.23775],[-114.75253,55.23926],[-114.74576,55.23531],[-114.74988,55.23455],[-114.74856,55.23219],[-114.7568,55.23068],[-114.75812,55.23304],[-114.76224,55.23228],[-114.76077,55.23775]]]}},{"type":"Feature","properties":{"fire_id":"PRC-003","scan_time":"2030-05-08T04:00:00Z","mapped_area_ha":72240,"source":"airborne IR scan (synthetic)"},"geometry":{"type":"MultiPolygon","coordinates":[[[[-114.76695,56.34206],[-114.76832,56.34442],[-114.76407,56.34518],[-114.7627,56.34282],[-114.76695,56.34206]]],[[[-114.68854,56.37684],[-114.69126,56.38156],[-114.68701,56.38232],[-114.68428,56.3776],[-114.68854,56.37684]]],[[[-114.65649,56.41896],[-114.65921,56.42369],[-114.65494,56.42444],[-114.65222,56.41972],[-114.65649,56.41896]]],[[[-114.66909,56.42454],[-114.67045,56.4269],[-114.67472,56.42615],[-114.67336,56.42379],[-114.67762,56.42303],[-114.67898,56.4254],[-114.68614,56.42152],[-114.69313,56.42549],[-114.70029,56.42162],[-114.69756,56.41689],[-114.70182,56.41614],[-114.70046,56.41378],[-114.6962,56.41453],[-114.69484,56.41217],[-114.68631,56.41368],[-114.68495,56.41132],[-114.67507,56.41047],[-114.67235,56.40574],[-114.66809,56.4065],[-114.66536,56.40177],[-114.6611,56.40253],[-114.65974,56.40017],[-114.6698,56.39318],[-114.67252,56.3979],[-114.67678,56.39715],[-114.67814,56.39951],[-114.68666,56.398],[-114.6853,56.39564],[-114.69382,56.39413],[-114.69518,56.39649],[-114.69944,56.39573],[-114.69807,56.39337],[-114.70233,56.39262],[-114.69961,56.38789],[-114.68973,56.38704],[-114.69126,56.38156],[-114.69552,56.38081],[-114.69688,56.38317],[-114.70114,56.38241],[-114.70386,56.38714],[-114.70812,56.38638],[-114.70948,56.38874],[-114.718,56.38723],[-114.71936,56.38959],[-114.72362,56.38884],[-114.72635,56.39356],[-114.7306,56.3928],[-114.73197,56.39516],[-114.74048,56.39365],[-114.74185,56.39601],[-114.75189,56.38902],[-114.75052,56.38665],[-114.74627,56.38741],[-114.7449,56.38505],[-114.7294,56.3826],[-114.73093,56.37712],[-114.72667,56.37788],[-114.71969,56.37391],[-114.7282,56.3724],[-114.72684,56.37004],[-114.73109,56.36928],[-114.73382,56.374],[-114.7437,56.37485],[-114.74643,56.37957],[-114.75068,56.37881],[-114.75205,56.38117],[-114.7563,56.38042],[-114.75494,56.37806],[-114.75919,56.3773],[-114.75646,56.37258],[-114.76071,56.37182],[-114.7677,56.37578],[-114.78046,56.37351],[-114.77909,56.37115],[-114.78335,56.37039],[-114.78608,56.37511],[-114.79596,56.37595],[-114.79748,56.37047],[-114.79322,56.37123],[-114.79049,56.36651],[-114.78623,56.36727],[-114.78487,56.36491],[-114.78912,56.36415],[-114.78638,56.35943],[-114.78213,56.36019],[-114.7794,56.35547],[-114.77515,56.35622],[-114.76832,56.34442],[-114.77257,56.34366],[-114.77667,56.35074],[-114.78654,56.35159],[-114.78927,56.35631],[-114.79914,56.35715],[-114.80188,56.36187],[-114.80613,56.36111],[-114.8075,56.36347],[-114.816,56.36195],[-114.81463,56.35959],[-114.81888,56.35883],[-114.81751,56.35647],[-114.81326,56.35723],[-114.81189,56.35487],[-114.81614,56.35411],[-114.81204,56.34703],[-114.80779,56.34779],[-114.80642,56.34543],[-114.81355,56.34155],[-114.81082,56.33683],[-114.81506,56.33607],[-114.8137,56.33371],[-114.80945,56.33447],[-114.80808,56.33211],[-114.79958,56.33363],[-114.79822,56.33127],[-114.80246,56.33051],[-114.79836,56.32343],[-114.80261,56.32267],[-114.80124,56.32031],[-114.797,56.32107],[-114.79002,56.31711],[-114.78152,56.31863],[-114.78016,56.31627],[-114.78441,56.31551],[-114.78168,56.31079],[-114.78592,56.31003],[-114.78319,56.30531],[-114.78744,56.30455],[-114.78607,56.30219],[-114.78183,56.30295],[-114.78062,56.29275],[-114.77637,56.29351],[-114.77501,56.29115],[-114.77076,56.29191],[-114.7694,56.28955],[-114.75394,56.2871],[-114.7485,56.27766],[-114.74425,56.27841],[-114.74153,56.27369],[-114.73729,56.27445],[-114.72761,56.26576],[-114.74457,56.26274],[-114.74593,56.2651],[-114.75017,56.26434],[-114.75154,56.2667],[-114.75578,56.26594],[-114.75714,56.2683],[-114.77259,56.27075],[-114.7741,56.26527],[-114.76426,56.26443],[-114.76154,56.25971],[-114.77138,56.26055],[-114.77289,56.25507],[-114.76865,56.25583],[-114.76729,56.25347],[-114.76305,56.25423],[-114.75049,56.24866],[-114.75897,56.24715],[-114.76593,56.25111],[-114.78425,56.25044],[-114.78576,56.24496],[-114.79424,56.24344],[-114.79288,56.24108],[-114.79999,56.2372],[-114.79862,56.23484],[-114.78319,56.2324],[-114.78183,56.23004],[-114.78606,56.22928],[-114.78334,56.22456],[-114.7791,56.22532],[-114.77774,56.22296],[-114.78198,56.2222],[-114.78062,56.21984],[-114.77638,56.2206],[-114.77366,56.21588],[-114.78349,56.21673],[-114.78621,56.22144],[-114.79045,56.22069],[-114.79741,56.22465],[-114.81571,56.22397],[-114.82964,56.23189],[-114.83811,56.23036],[-114.83675,56.22801],[-114.84098,56.22724],[-114.83825,56.22253],[-114.84249,56.22177],[-114.84385,56.22412],[-114.84809,56.22336],[-114.85219,56.23044],[-114.85642,56.22968],[-114.85779,56.23204],[-114.86626,56.23052],[-114.87323,56.23447],[-114.88033,56.23059],[-114.8817,56.23295],[-114.89017,56.23142],[-114.89154,56.23378],[-114.9,56.23226],[-114.89863,56.2299],[-114.90573,56.22601],[-114.9071,56.22837],[-114.91694,56.2292],[-114.91968,56.23392],[-114.92392,56.23316],[-114.92529,56.23551],[-114.93238,56.23163],[-114.92827,56.22455],[-114.9325,56.22379],[-114.93113,56.22143],[-114.94383,56.21914],[-114.9452,56.2215],[-114.94943,56.22073],[-114.94806,56.21837],[-114.95229,56.21761],[-114.94954,56.21289],[-114.95378,56.21213],[-114.95652,56.21684],[-114.97196,56.21926],[-114.97608,56.22634],[-114.98032,56.22557],[-114.97883,56.23105],[-114.98307,56.23028],[-114.98444,56.23264],[-114.98867,56.23188],[-115.00127,56.23742],[-115.0055,56.23665],[-115.00412,56.23429],[-115.01396,56.23511],[-115.01534,56.23747],[-115.01111,56.23824],[-115.01249,56.2406],[-115.01672,56.23983],[-115.01524,56.24531],[-115.02509,56.24613],[-115.02656,56.24065],[-115.0308,56.23988],[-115.03217,56.24224],[-115.03641,56.24147],[-115.03503,56.23912],[-115.04349,56.23758],[-115.04487,56.23994],[-115.0491,56.23917],[-115.05048,56.24152],[-115.05472,56.24076],[-115.0561,56.24311],[-115.07155,56.24552],[-115.07432,56.25023],[-115.07855,56.24946],[-115.07993,56.25182],[-115.08417,56.25105],[-115.08693,56.25576],[-115.09116,56.25499],[-115.0967,56.26442],[-115.10655,56.26523],[-115.10794,56.26759],[-115.1037,56.26836],[-115.10786,56.27543],[-115.10362,56.2762],[-115.1134,56.28485],[-115.10916,56.28562],[-115.11055,56.28798],[-115.10061,56.295],[-115.102,56.29736],[-115.11186,56.29817],[-115.11463,56.30289],[-115.12449,56.3037],[-115.12727,56.30841],[-115.12303,56.30918],[-115.12442,56.31154],[-115.12866,56.31077],[-115.13699,56.3249],[-115.14123,56.32413],[-115.1454,56.3312],[-115.14116,56.33197],[-115.14394,56.33668],[-115.14818,56.33591],[-115.14957,56.33827],[-115.14533,56.33904],[-115.14811,56.34375],[-115.14386,56.34452],[-115.14804,56.35159],[-115.14379,56.35236],[-115.14658,56.35708],[-115.13948,56.36098],[-115.14087,56.36333],[-115.14511,56.36256],[-115.1479,56.36727],[-115.15214,56.3665],[-115.15771,56.37592],[-115.14922,56.37747],[-115.15061,56.37983],[-115.14351,56.38373],[-115.14768,56.39079],[-115.14344,56.39157],[-115.14622,56.39628],[-115.13912,56.40018],[-115.14329,56.40725],[-115.13333,56.41428],[-115.14036,56.41822],[-115.13186,56.41976],[-115.13325,56.42212],[-115.12614,56.42602],[-115.12893,56.43073],[-115.12467,56.4315],[-115.1232,56.43699],[-115.1147,56.43853],[-115.11609,56.44089],[-115.10332,56.4432],[-115.10479,56.43772],[-115.10054,56.43849],[-115.0935,56.43454],[-115.08499,56.43608],[-115.0836,56.43373],[-115.07935,56.4345],[-115.08074,56.43685],[-115.07648,56.43762],[-115.0863,56.44628],[-115.07779,56.44782],[-115.07918,56.45018],[-115.07205,56.45408],[-115.07483,56.45879],[-115.07058,56.45956],[-115.07762,56.46351],[-115.07336,56.46428],[-115.07475,56.46663],[-115.07049,56.4674],[-115.06614,56.47602],[-115.05762,56.47755],[-115.05623,56.4752],[-115.0491,56.47909],[-115.04771,56.47673],[-115.04345,56.4775],[-115.03909,56.48611],[-115.02631,56.48842],[-115.0277,56.49078],[-115.02343,56.49154],[-115.02621,56.49626],[-115.01342,56.49856],[-115.01481,56.50092],[-115.01054,56.50169],[-115.00618,56.5103],[-114.99338,56.5126],[-114.99199,56.51024],[-114.97919,56.51254],[-114.98058,56.5149],[-114.97205,56.51643],[-114.97066,56.51407],[-114.96213,56.51561],[-114.95775,56.52421],[-114.94206,56.52963],[-114.94344,56.53199],[-114.93629,56.53588],[-114.93905,56.5406],[-114.93478,56.54137],[-114.93617,56.54373],[-114.92335,56.54602],[-114.92474,56.54838],[-114.92047,56.54914],[-114.92185,56.5515],[-114.9133,56.55303],[-114.91469,56.55539],[-114.89759,56.55845],[-114.89608,56.56393],[-114.87899,56.56698],[-114.8776,56.56462],[-114.87333,56.56538],[-114.87471,56.56774],[-114.86616,56.56927],[-114.86478,56.56691],[-114.85623,56.56843],[-114.85761,56.57079],[-114.85043,56.57468],[-114.8434,56.57072],[-114.82491,56.5714],[-114.82216,56.56668],[-114.81788,56.56744],[-114.81651,56.56508],[-114.80092,56.56263],[-114.79955,56.56027],[-114.80672,56.55639],[-114.80535,56.55403],[-114.79542,56.55319],[-114.79267,56.54847],[-114.7884,56.54923],[-114.78702,56.54687],[-114.75709,56.55218],[-114.75863,56.54669],[-114.75435,56.54745],[-114.75298,56.54509],[-114.74443,56.54661],[-114.74168,56.54188],[-114.73741,56.54264],[-114.7333,56.53556],[-114.72902,56.53631],[-114.72765,56.53395],[-114.73483,56.53007],[-114.73209,56.52535],[-114.73636,56.52459],[-114.73773,56.52696],[-114.74628,56.52544],[-114.74781,56.51996],[-114.73225,56.51751],[-114.72952,56.51278],[-114.7196,56.51194],[-114.71687,56.50721],[-114.70132,56.50476],[-114.70285,56.49928],[-114.69295,56.49843],[-114.68885,56.49134],[-114.70866,56.49304],[-114.70729,56.49068],[-114.71156,56.48992],[-114.70883,56.4852],[-114.70456,56.48596],[-114.69756,56.48199],[-114.68902,56.4835],[-114.68629,56.47877],[-114.68202,56.47953],[-114.67929,56.47481],[-114.67502,56.47556],[-114.66803,56.47159],[-114.65949,56.4731],[-114.65813,56.47074],[-114.65386,56.47149],[-114.64124,56.46591],[-114.6327,56.46742],[-114.63425,56.46194],[-114.64278,56.46043],[-114.64415,56.46279],[-114.64841,56.46204],[-114.64977,56.4644],[-114.65404,56.46365],[-114.66667,56.46923],[-114.67674,56.46224],[-114.67401,56.45751],[-114.66975,56.45827],[-114.66566,56.45118],[-114.66139,56.45194],[-114.65867,56.44721],[-114.64878,56.44636],[-114.64605,56.44163],[-114.65595,56.44249],[-114.65749,56.43701],[-114.65322,56.43776],[-114.64624,56.43379],[-114.65476,56.43228],[-114.65921,56.42369],[-114.66909,56.42454]],[[-114.89735,56.4855],[-114.89309,56.48626],[-114.89171,56.4839],[-114.88318,56.48543],[-114.88456,56.48779],[-114.88029,56.48855],[-114.88305,56.49327],[-114.88732,56.49251],[-114.89007,56.49723],[-114.89434,56.49647],[-114.89572,56.49883],[-114.90287,56.49494],[-114.89735,56.4855]],[[-114.9591,56.43011],[-114.94921,56.42928],[-114.94771,56.43476],[-114.95761,56.43559],[-114.9591,56.43011]],[[-114.79581,56.38379],[-114.78593,56.38295],[-114.78441,56.38843],[-114.79429,56.38927],[-114.79581,56.38379]],[[-114.98624,56.30791],[-114.99048,56.30714],[-114.9891,56.30478],[-114.98486,56.30555],[-114.98073,56.29848],[-114.98497,56.29771],[-114.96833,56.27726],[-114.9641,56.27802],[-114.95711,56.27407],[-114.94863,56.2756],[-114.94726,56.27324],[-114.93878,56.27477],[-114.93741,56.27241],[-114.93317,56.27318],[-114.93454,56.27554],[-114.9303,56.2763],[-114.93168,56.27866],[-114.93591,56.27789],[-114.93866,56.28261],[-114.93018,56.28414],[-114.93156,56.2865],[-114.92732,56.28726],[-114.93431,56.29121],[-114.93006,56.29198],[-114.93281,56.2967],[-114.9257,56.30058],[-114.92708,56.30294],[-114.93132,56.30218],[-114.92983,56.30766],[-114.93407,56.30689],[-114.93682,56.31161],[-114.94106,56.31085],[-114.94806,56.3148],[-114.96079,56.3125],[-114.96216,56.31486],[-114.96641,56.31409],[-114.96503,56.31174],[-114.96927,56.31097],[-114.96652,56.30626],[-114.97076,56.30549],[-114.97489,56.31256],[-114.97913,56.3118],[-114.98051,56.31416],[-114.98475,56.31339],[-114.98624,56.30791]],[[-114.97989,56.25692],[-114.97004,56.2561],[-114.96855,56.26158],[-114.9784,56.2624],[-114.97989,56.25692]],[[-114.81046,56.2796],[-114.80622,56.28036],[-114.80349,56.27564],[-114.79925,56.2764],[-114.79789,56.27404],[-114.79077,56.27791],[-114.80471,56.28584],[-114.80895,56.28508],[-114.81046,56.2796]],[[-114.83496,56.24916],[-114.83073,56.24992],[-114.81816,56.24436],[-114.80968,56.24588],[-114.81104,56.24824],[-114.80681,56.249],[-114.80817,56.25136],[-114.81241,56.2506],[-114.82498,56.25616],[-114.83346,56.25464],[-114.83496,56.24916]]],[[[-114.64469,56.43927],[-114.64605,56.44163],[-114.64179,56.44239],[-114.64043,56.44002],[-114.64469,56.43927]]],[[[-114.71807,56.51742],[-114.71944,56.51978],[-114.71516,56.52054],[-114.7138,56.51817],[-114.71807,56.51742]]],[[[-114.73072,56.52299],[-114.73209,56.52535],[-114.72782,56.52611],[-114.72645,56.52375],[-114.73072,56.52299]]],[[[-114.72354,56.52686],[-114.71927,56.52762],[-114.7179,56.52526],[-114.72217,56.5245],[-114.72354,56.52686]]],[[[-114.85181,56.57704],[-114.84754,56.5778],[-114.84616,56.57544],[-114.85043,56.57468],[-114.85181,56.57704]]]]}},{"type":"Feature","properties":{"fire_id":"PRC-002","scan_time":"2030-05-09T04:00:00Z","mapped_area_ha":14270,"source":"airborne IR scan (synthetic)"},"geometry":{"type":"MultiPolygon","coordinates":[[[[-111.45453,56.62273],[-111.45338,56.62033],[-111.45773,56.61969],[-111.45888,56.62209],[-111.45453,56.62273]]],[[[-111.48931,56.74342],[-111.48815,56.74102],[-111.48379,56.74165],[-111.48147,56.73686],[-111.47711,56.73749],[-111.47916,56.73206],[-111.46928,56.73093],[-111.46812,56.72853],[-111.47569,56.72486],[-111.47222,56.71767],[-111.46235,56.71654],[-111.46029,56.72197],[-111.45593,56.72261],[-111.45478,56.72021],[-111.44169,56.72211],[-111.44284,56.72451],[-111.43848,56.72515],[-111.43181,56.72098],[-111.43617,56.72035],[-111.43823,56.71492],[-111.43387,56.71555],[-111.43271,56.71315],[-111.42399,56.71442],[-111.42605,56.70899],[-111.42169,56.70962],[-111.42053,56.70722],[-111.41181,56.70849],[-111.40515,56.70433],[-111.40079,56.70496],[-111.40194,56.70736],[-111.39321,56.70862],[-111.39206,56.70622],[-111.3877,56.70686],[-111.38311,56.69726],[-111.39068,56.6936],[-111.38953,56.6912],[-111.38517,56.69183],[-111.38402,56.68943],[-111.38838,56.6888],[-111.38723,56.6864],[-111.38287,56.68703],[-111.38058,56.68223],[-111.38493,56.6816],[-111.38379,56.6792],[-111.36842,56.6763],[-111.36612,56.6715],[-111.36176,56.67213],[-111.35947,56.66733],[-111.35511,56.66796],[-111.35397,56.66556],[-111.35833,56.66493],[-111.36039,56.6595],[-111.36475,56.65887],[-111.36589,56.66127],[-111.37461,56.66001],[-111.37346,56.65761],[-111.37782,56.65698],[-111.37117,56.65281],[-111.37988,56.65155],[-111.38102,56.65395],[-111.38538,56.65331],[-111.38653,56.65571],[-111.39524,56.65445],[-111.40189,56.65861],[-111.41266,56.65192],[-111.41036,56.64712],[-111.42572,56.65002],[-111.42457,56.64762],[-111.42892,56.64699],[-111.42662,56.64219],[-111.41677,56.64106],[-111.41562,56.63866],[-111.41997,56.63803],[-111.41767,56.63323],[-111.42202,56.63259],[-111.42317,56.63499],[-111.43188,56.63373],[-111.43073,56.63133],[-111.43508,56.63069],[-111.43623,56.63309],[-111.44058,56.63246],[-111.45274,56.63838],[-111.45709,56.63775],[-111.45594,56.63535],[-111.46464,56.63408],[-111.46349,56.63168],[-111.46784,56.63105],[-111.46669,56.62865],[-111.46234,56.62929],[-111.45888,56.62209],[-111.46643,56.61842],[-111.46528,56.61603],[-111.46093,56.61666],[-111.45863,56.61186],[-111.46298,56.61123],[-111.46413,56.61363],[-111.46848,56.61299],[-111.46732,56.6106],[-111.48587,56.61045],[-111.48383,56.61588],[-111.48818,56.61525],[-111.49483,56.61941],[-111.50353,56.61813],[-111.50468,56.62053],[-111.51338,56.61926],[-111.51223,56.61686],[-111.51657,56.61622],[-111.51889,56.62102],[-111.52323,56.62038],[-111.52439,56.62278],[-111.53193,56.61911],[-111.53078,56.61671],[-111.52643,56.61735],[-111.52412,56.61255],[-111.53281,56.61128],[-111.53485,56.60585],[-111.53919,56.60521],[-111.54035,56.6076],[-111.54904,56.60633],[-111.5502,56.60873],[-111.55889,56.60745],[-111.56005,56.60985],[-111.5699,56.61097],[-111.57222,56.61576],[-111.57657,56.61512],[-111.57772,56.61752],[-111.58642,56.61624],[-111.58758,56.61864],[-111.60294,56.62151],[-111.60643,56.6287],[-111.60208,56.62934],[-111.60673,56.63893],[-111.61108,56.63829],[-111.61224,56.64068],[-111.60789,56.64132],[-111.61021,56.64612],[-111.61456,56.64548],[-111.61573,56.64787],[-111.62443,56.64659],[-111.62559,56.64899],[-111.63429,56.6477],[-111.63545,56.6501],[-111.6311,56.65074],[-111.63227,56.65314],[-111.64213,56.65425],[-111.64446,56.65904],[-111.64011,56.65969],[-111.64244,56.66448],[-111.63809,56.66512],[-111.64478,56.66927],[-111.63724,56.67295],[-111.63957,56.67774],[-111.63202,56.68142],[-111.63435,56.68622],[-111.62129,56.68814],[-111.62245,56.69054],[-111.61374,56.69182],[-111.61491,56.69422],[-111.60619,56.6955],[-111.60503,56.6931],[-111.60067,56.69374],[-111.60184,56.69614],[-111.59109,56.70285],[-111.59342,56.70765],[-111.58906,56.70829],[-111.5879,56.70589],[-111.58354,56.70653],[-111.5847,56.70893],[-111.57482,56.70781],[-111.57599,56.7102],[-111.56843,56.71388],[-111.57192,56.72107],[-111.55884,56.72299],[-111.5568,56.72842],[-111.54139,56.72554],[-111.54255,56.72794],[-111.53819,56.72858],[-111.54051,56.73337],[-111.53615,56.73401],[-111.53731,56.73641],[-111.54167,56.73577],[-111.54399,56.74057],[-111.53963,56.74121],[-111.54079,56.7436],[-111.53643,56.74424],[-111.53527,56.74184],[-111.52654,56.74312],[-111.5277,56.74552],[-111.50908,56.74567],[-111.51024,56.74806],[-111.50588,56.7487],[-111.50472,56.7463],[-111.48931,56.74342]],[[-111.4999,56.68797],[-111.49874,56.68557],[-111.50746,56.68429],[-111.5063,56.6819],[-111.51386,56.67822],[-111.50719,56.67407],[-111.50283,56.6747],[-111.50399,56.6771],[-111.49528,56.67837],[-111.49643,56.68077],[-111.48567,56.68748],[-111.49234,56.69164],[-111.4999,56.68797]],[[-111.55857,56.67425],[-111.5606,56.66881],[-111.55074,56.66769],[-111.5455,56.67616],[-111.54986,56.67552],[-111.55102,56.67792],[-111.55857,56.67425]],[[-111.61254,56.65091],[-111.60586,56.64676],[-111.59832,56.65043],[-111.605,56.65459],[-111.61254,56.65091]]],[[[-111.49162,56.74821],[-111.49047,56.74581],[-111.49483,56.74518],[-111.49599,56.74758],[-111.49162,56.74821]]]]}},{"type":"Feature","properties":{"fire_id":"PRC-003","scan_time":"2030-05-09T04:00:00Z","mapped_area_ha":97850,"source":"airborne IR scan (synthetic)"},"geometry":{"type":"MultiPolygon","coordinates":[[[[-114.84031,56.1857],[-114.84167,56.18806],[-114.83744,56.18882],[-114.83608,56.18646],[-114.84031,56.1857]]],[[[-114.68215,56.21921],[-114.6835,56.22157],[-114.67926,56.22233],[-114.67791,56.21997],[-114.68215,56.21921]]],[[[-114.91033,56.20174],[-114.9117,56.20409],[-114.90747,56.20486],[-114.9061,56.2025],[-114.91033,56.20174]]],[[[-115.09833,56.24326],[-115.09971,56.24561],[-115.09548,56.24638],[-115.0941,56.24403],[-115.09833,56.24326]]],[[[-114.73496,56.31912],[-114.73632,56.32148],[-114.73207,56.32224],[-114.73071,56.31988],[-114.73496,56.31912]]],[[[-114.58441,56.35884],[-114.58577,56.3612],[-114.58151,56.36195],[-114.58016,56.35959],[-114.58441,56.35884]]],[[[-114.77424,56.33034],[-114.77561,56.3327],[-114.77136,56.33346],[-114.76999,56.3311],[-114.77424,56.33034]]],[[[-115.08031,56.47606],[-115.07605,56.47683],[-115.07744,56.47919],[-115.06753,56.47837],[-115.06892,56.48073],[-115.06466,56.4815],[-115.06744,56.48622],[-115.05466,56.48852],[-115.05605,56.49088],[-115.05179,56.49165],[-115.04475,56.4877],[-115.04048,56.48847],[-115.04187,56.49083],[-115.03335,56.49237],[-115.03474,56.49472],[-115.03047,56.49549],[-115.03325,56.50021],[-115.02472,56.50175],[-115.02611,56.5041],[-115.02185,56.50487],[-115.01748,56.51348],[-115.00895,56.51502],[-115.00746,56.5205],[-114.99039,56.52357],[-114.98901,56.52121],[-114.97055,56.52192],[-114.97194,56.52428],[-114.96767,56.52504],[-114.96329,56.53365],[-114.95475,56.53518],[-114.95613,56.53754],[-114.95186,56.53831],[-114.95464,56.54302],[-114.95036,56.54379],[-114.95175,56.54615],[-114.94748,56.54691],[-114.94609,56.54456],[-114.94182,56.54532],[-114.94321,56.54768],[-114.93328,56.54685],[-114.93466,56.54921],[-114.93039,56.54997],[-114.93455,56.55705],[-114.93027,56.55782],[-114.93304,56.56254],[-114.92311,56.56171],[-114.9245,56.56407],[-114.92022,56.56483],[-114.92161,56.56719],[-114.91306,56.56872],[-114.91444,56.57108],[-114.90162,56.57337],[-114.90023,56.57101],[-114.89306,56.5749],[-114.87899,56.56698],[-114.87471,56.56774],[-114.87609,56.5701],[-114.87182,56.57087],[-114.87043,56.56851],[-114.85761,56.57079],[-114.85609,56.57627],[-114.84754,56.5778],[-114.8405,56.57384],[-114.83333,56.57772],[-114.83195,56.57536],[-114.82767,56.57612],[-114.82629,56.57376],[-114.82202,56.57452],[-114.80933,56.56896],[-114.7965,56.57124],[-114.78947,56.56727],[-114.78091,56.56879],[-114.77817,56.56407],[-114.77389,56.56483],[-114.77251,56.56247],[-114.76396,56.56398],[-114.76259,56.56162],[-114.75541,56.5655],[-114.75403,56.56314],[-114.74975,56.5639],[-114.74838,56.56153],[-114.75266,56.56078],[-114.75129,56.55842],[-114.74701,56.55917],[-114.74427,56.55445],[-114.73999,56.55521],[-114.73862,56.55285],[-114.73434,56.5536],[-114.72168,56.54803],[-114.71312,56.54954],[-114.71175,56.54718],[-114.70183,56.54633],[-114.6991,56.54161],[-114.70337,56.54085],[-114.70491,56.53537],[-114.70063,56.53613],[-114.69927,56.53376],[-114.69072,56.53528],[-114.68935,56.53291],[-114.67943,56.53206],[-114.6767,56.52734],[-114.67242,56.52809],[-114.66833,56.521],[-114.67551,56.51713],[-114.67414,56.51477],[-114.66423,56.51392],[-114.66014,56.50683],[-114.66441,56.50607],[-114.66168,56.50135],[-114.65177,56.5005],[-114.64905,56.49577],[-114.64478,56.49652],[-114.63778,56.49255],[-114.64632,56.49105],[-114.64496,56.48868],[-114.64923,56.48793],[-114.64787,56.48557],[-114.6436,56.48632],[-114.64087,56.48159],[-114.6366,56.48235],[-114.63388,56.47762],[-114.64378,56.47848],[-114.64532,56.473],[-114.63542,56.47214],[-114.6327,56.46742],[-114.62843,56.46817],[-114.62707,56.46581],[-114.63561,56.4643],[-114.64006,56.45571],[-114.64996,56.45656],[-114.6544,56.44797],[-114.65014,56.44872],[-114.64878,56.44636],[-114.62745,56.45013],[-114.62609,56.44776],[-114.62182,56.44852],[-114.61774,56.44143],[-114.62201,56.44068],[-114.61503,56.4367],[-114.61929,56.43595],[-114.61793,56.43359],[-114.61367,56.43434],[-114.61231,56.43198],[-114.60514,56.43584],[-114.59816,56.43187],[-114.58963,56.43337],[-114.5842,56.42392],[-114.57994,56.42467],[-114.57858,56.42231],[-114.58285,56.42156],[-114.58013,56.41683],[-114.57587,56.41758],[-114.57452,56.41522],[-114.56173,56.41747],[-114.55902,56.41275],[-114.55475,56.4135],[-114.54778,56.40952],[-114.55205,56.40877],[-114.54934,56.40404],[-114.5536,56.40329],[-114.55225,56.40093],[-114.55651,56.40018],[-114.55787,56.40254],[-114.56504,56.39868],[-114.56774,56.40341],[-114.56348,56.40416],[-114.56483,56.40652],[-114.57471,56.40738],[-114.57336,56.40502],[-114.57762,56.40427],[-114.58208,56.39567],[-114.58634,56.39492],[-114.5877,56.39729],[-114.59622,56.39578],[-114.59777,56.39031],[-114.60628,56.3888],[-114.609,56.39353],[-114.61326,56.39277],[-114.62585,56.39836],[-114.63301,56.39449],[-114.63029,56.38976],[-114.62604,56.39052],[-114.62468,56.38815],[-114.62042,56.38891],[-114.6177,56.38418],[-114.61345,56.38493],[-114.61499,56.37946],[-114.61073,56.38021],[-114.60938,56.37785],[-114.60512,56.3786],[-114.60376,56.37624],[-114.58828,56.37377],[-114.58693,56.3714],[-114.59118,56.37065],[-114.58712,56.36356],[-114.59138,56.36281],[-114.59834,56.36678],[-114.60686,56.36528],[-114.60821,56.36764],[-114.61537,56.36378],[-114.61266,56.35905],[-114.6084,56.3598],[-114.60569,56.35508],[-114.60144,56.35583],[-114.59873,56.35111],[-114.60588,56.34724],[-114.60453,56.34488],[-114.60027,56.34563],[-114.59757,56.3409],[-114.60607,56.3394],[-114.60743,56.34176],[-114.61168,56.34101],[-114.61304,56.34337],[-114.61729,56.34262],[-114.61865,56.34498],[-114.63412,56.34745],[-114.63548,56.34981],[-114.63122,56.35056],[-114.63393,56.35529],[-114.63819,56.35453],[-114.64516,56.3585],[-114.65231,56.35463],[-114.64959,56.34991],[-114.63973,56.34906],[-114.63702,56.34433],[-114.64127,56.34358],[-114.63856,56.33885],[-114.6343,56.33961],[-114.63295,56.33725],[-114.64145,56.33574],[-114.64842,56.33971],[-114.65692,56.3382],[-114.65846,56.33272],[-114.66696,56.33121],[-114.66832,56.33358],[-114.67546,56.32971],[-114.67682,56.33207],[-114.68668,56.33292],[-114.69076,56.34],[-114.69501,56.33925],[-114.69637,56.34161],[-114.70488,56.3401],[-114.70641,56.33462],[-114.71066,56.33386],[-114.71202,56.33622],[-114.71627,56.33547],[-114.71491,56.33311],[-114.71916,56.33235],[-114.72052,56.33471],[-114.72902,56.3332],[-114.72766,56.33084],[-114.73191,56.33008],[-114.72221,56.32139],[-114.72646,56.32064],[-114.73904,56.32621],[-114.74329,56.32545],[-114.74193,56.32309],[-114.75043,56.32157],[-114.75315,56.3263],[-114.7574,56.32554],[-114.76149,56.33262],[-114.76574,56.33186],[-114.76711,56.33422],[-114.76286,56.33498],[-114.76559,56.3397],[-114.76984,56.33894],[-114.7712,56.3413],[-114.77834,56.33743],[-114.77561,56.3327],[-114.77986,56.33195],[-114.78122,56.33431],[-114.78972,56.33279],[-114.78835,56.33043],[-114.7926,56.32967],[-114.79124,56.32731],[-114.78137,56.32647],[-114.77864,56.32175],[-114.78289,56.32099],[-114.77879,56.31391],[-114.77455,56.31467],[-114.77318,56.31231],[-114.77743,56.31155],[-114.77607,56.30919],[-114.76621,56.30834],[-114.76773,56.30286],[-114.75226,56.30042],[-114.74818,56.29334],[-114.74393,56.29409],[-114.74257,56.29173],[-114.72984,56.294],[-114.72712,56.28928],[-114.72287,56.29004],[-114.71591,56.28607],[-114.70742,56.28758],[-114.7047,56.28286],[-114.70045,56.28362],[-114.6991,56.28126],[-114.69061,56.28277],[-114.68925,56.28041],[-114.685,56.28116],[-114.68229,56.27644],[-114.66684,56.27398],[-114.66413,56.26926],[-114.65989,56.27001],[-114.65582,56.26293],[-114.65158,56.26368],[-114.65023,56.26132],[-114.65871,56.25981],[-114.65736,56.25745],[-114.6616,56.2567],[-114.66025,56.25433],[-114.65041,56.25348],[-114.6477,56.24876],[-114.64346,56.24951],[-114.6421,56.24715],[-114.65483,56.24489],[-114.65347,56.24253],[-114.66331,56.24338],[-114.66196,56.24102],[-114.6662,56.24027],[-114.65807,56.2261],[-114.66231,56.22534],[-114.66926,56.22931],[-114.68197,56.22705],[-114.6835,56.22157],[-114.68774,56.22082],[-114.69469,56.22478],[-114.72011,56.22025],[-114.72283,56.22497],[-114.72706,56.22421],[-114.72842,56.22657],[-114.74385,56.22902],[-114.74249,56.22666],[-114.74673,56.22591],[-114.74401,56.22119],[-114.73418,56.22034],[-114.72451,56.21165],[-114.71468,56.21081],[-114.70926,56.20136],[-114.71773,56.19985],[-114.72468,56.20382],[-114.72891,56.20306],[-114.72755,56.2007],[-114.73738,56.20155],[-114.74145,56.20863],[-114.74569,56.20787],[-114.74705,56.21023],[-114.75552,56.20872],[-114.75112,56.21731],[-114.75536,56.21655],[-114.75672,56.21891],[-114.76519,56.2174],[-114.76655,56.21976],[-114.77079,56.219],[-114.76942,56.21664],[-114.77653,56.21276],[-114.77381,56.20804],[-114.78092,56.20417],[-114.77956,56.20181],[-114.77533,56.20257],[-114.77261,56.19785],[-114.78243,56.19869],[-114.79211,56.20737],[-114.79634,56.20661],[-114.7977,56.20897],[-114.80617,56.20745],[-114.81313,56.21141],[-114.81736,56.21065],[-114.81887,56.20517],[-114.80345,56.20273],[-114.798,56.1933],[-114.80223,56.19254],[-114.81478,56.1981],[-114.82188,56.19422],[-114.83444,56.19977],[-114.84154,56.19589],[-114.82898,56.19034],[-114.83744,56.18882],[-114.85136,56.19673],[-114.85559,56.19597],[-114.85423,56.19361],[-114.86269,56.19209],[-114.86542,56.19681],[-114.88085,56.19924],[-114.88495,56.20631],[-114.88918,56.20555],[-114.89055,56.20791],[-114.89901,56.20638],[-114.89764,56.20402],[-114.90747,56.20486],[-114.91021,56.20957],[-114.92004,56.2104],[-114.92141,56.21276],[-114.91718,56.21353],[-114.91992,56.21824],[-114.92416,56.21748],[-114.92553,56.21984],[-114.93399,56.21831],[-114.93536,56.22067],[-114.94383,56.21914],[-114.9452,56.2215],[-114.95229,56.21761],[-114.93983,56.20423],[-114.94966,56.20506],[-114.94829,56.2027],[-114.95537,56.19881],[-114.96235,56.20276],[-114.97081,56.20123],[-114.97355,56.20594],[-114.97778,56.20518],[-114.98476,56.20913],[-114.99322,56.2076],[-114.99872,56.21702],[-115.00295,56.21626],[-115.00983,56.22804],[-115.01406,56.22728],[-115.0182,56.23435],[-115.02243,56.23358],[-115.02381,56.23594],[-115.03227,56.2344],[-115.03926,56.23835],[-115.05195,56.23604],[-115.05333,56.2384],[-115.07164,56.23768],[-115.07302,56.24004],[-115.07725,56.23927],[-115.08002,56.24398],[-115.09548,56.24638],[-115.09825,56.25109],[-115.10248,56.25032],[-115.10386,56.25268],[-115.11233,56.25114],[-115.1151,56.25585],[-115.11933,56.25508],[-115.12487,56.2645],[-115.12064,56.26527],[-115.12341,56.26999],[-115.11918,56.27076],[-115.11779,56.2684],[-115.11071,56.2723],[-115.11209,56.27466],[-115.12757,56.27705],[-115.13034,56.28177],[-115.12611,56.28254],[-115.12749,56.28489],[-115.11902,56.28644],[-115.12041,56.28879],[-115.11332,56.29269],[-115.11609,56.2974],[-115.13158,56.2998],[-115.13012,56.30528],[-115.13436,56.30451],[-115.13575,56.30687],[-115.14422,56.30532],[-115.147,56.31004],[-115.15124,56.30926],[-115.15958,56.3234],[-115.16382,56.32263],[-115.1666,56.32734],[-115.15951,56.33124],[-115.1609,56.33359],[-115.17077,56.3344],[-115.17217,56.33676],[-115.16792,56.33753],[-115.17071,56.34224],[-115.16647,56.34302],[-115.16786,56.34537],[-115.15937,56.34692],[-115.16077,56.34927],[-115.15367,56.35318],[-115.15506,56.35553],[-115.15931,56.35476],[-115.16348,56.36183],[-115.16773,56.36105],[-115.16912,56.36341],[-115.17761,56.36186],[-115.18179,56.36893],[-115.17754,56.3697],[-115.17323,56.37832],[-115.16474,56.37986],[-115.16613,56.38222],[-115.15618,56.38925],[-115.15897,56.39396],[-115.15186,56.39786],[-115.15744,56.40729],[-115.15319,56.40806],[-115.15458,56.41042],[-115.15033,56.41119],[-115.14894,56.40883],[-115.13618,56.41115],[-115.13758,56.41351],[-115.13333,56.41428],[-115.14036,56.41822],[-115.13611,56.41899],[-115.14308,56.43077],[-115.13457,56.43232],[-115.13597,56.43467],[-115.13171,56.43545],[-115.13875,56.43939],[-115.12599,56.4417],[-115.12738,56.44406],[-115.11748,56.44325],[-115.11887,56.4456],[-115.11462,56.44637],[-115.11601,56.44873],[-115.11175,56.4495],[-115.10742,56.45811],[-115.10316,56.45888],[-115.10177,56.45653],[-115.089,56.45884],[-115.08761,56.45648],[-115.08335,56.45725],[-115.08474,56.45961],[-115.08048,56.46038],[-115.08326,56.46509],[-115.08752,56.46432],[-115.08891,56.46668],[-115.08466,56.46745],[-115.08031,56.47606]],[[-114.89309,56.48626],[-114.89171,56.4839],[-114.88318,56.48543],[-114.88456,56.48779],[-114.88029,56.48855],[-114.88167,56.49091],[-114.88594,56.49015],[-114.89007,56.49723],[-114.89434,56.49647],[-114.89572,56.49883],[-114.90287,56.49494],[-114.89735,56.4855],[-114.89309,56.48626]],[[-114.69602,56.48747],[-114.68902,56.4835],[-114.68185,56.48737],[-114.69448,56.49295],[-114.70166,56.48907],[-114.70029,56.48671],[-114.69602,56.48747]],[[-114.95485,56.43087],[-114.95346,56.42852],[-114.94921,56.42928],[-114.94771,56.43476],[-114.95761,56.43559],[-114.95623,56.43323],[-114.96048,56.43247],[-114.9591,56.43011],[-114.95485,56.43087]],[[-114.66086,56.47546],[-114.65949,56.4731],[-114.65522,56.47385],[-114.65368,56.47933],[-114.66358,56.48019],[-114.66222,56.47782],[-114.66649,56.47707],[-114.66512,56.47471],[-114.66086,56.47546]],[[-114.81326,56.35723],[-114.81189,56.35487],[-114.81614,56.35411],[-114.81341,56.34939],[-114.79792,56.34695],[-114.79929,56.34931],[-114.79504,56.35007],[-114.79914,56.35715],[-114.80339,56.35639],[-114.80188,56.36187],[-114.80613,56.36111],[-114.8075,56.36347],[-114.816,56.36195],[-114.81463,56.35959],[-114.81888,56.35883],[-114.81751,56.35647],[-114.81326,56.35723]],[[-114.72837,56.36456],[-114.727,56.3622],[-114.72275,56.36295],[-114.72122,56.36843],[-114.73109,56.36928],[-114.72973,56.36692],[-114.73398,56.36616],[-114.73262,56.3638],[-114.72837,56.36456]],[[-114.99048,56.30714],[-114.9891,56.30478],[-114.98486,56.30555],[-114.98073,56.29848],[-114.98497,56.29771],[-114.96833,56.27726],[-114.9641,56.27802],[-114.95711,56.27407],[-114.94863,56.2756],[-114.94726,56.27324],[-114.93878,56.27477],[-114.93741,56.27241],[-114.93317,56.27318],[-114.93454,56.27554],[-114.9303,56.2763],[-114.93168,56.27866],[-114.93591,56.27789],[-114.93866,56.28261],[-114.93018,56.28414],[-114.93156,56.2865],[-114.92732,56.28726],[-114.93431,56.29121],[-114.93006,56.29198],[-114.93281,56.2967],[-114.9257,56.30058],[-114.92708,56.30294],[-114.93132,56.30218],[-114.92983,56.30766],[-114.93407,56.30689],[-114.93682,56.31161],[-114.94106,56.31085],[-114.94806,56.3148],[-114.96079,56.3125],[-114.96216,56.31486],[-114.96927,56.31097],[-114.96652,56.30626],[-114.97076,56.30549],[-114.97489,56.31256],[-114.97913,56.3118],[-114.98051,56.31416],[-114.99048,56.30714]],[[-114.63356,56.37097],[-114.63221,56.3686],[-114.62369,56.37011],[-114.62234,56.36775],[-114.61518,56.37162],[-114.62776,56.3772],[-114.63628,56.37569],[-114.63492,56.37333],[-114.63918,56.37258],[-114.63782,56.37021],[-114.63356,56.37097]],[[-114.75132,56.34745],[-114.74434,56.34349],[-114.7372,56.34736],[-114.74979,56.35293],[-114.75693,56.34906],[-114.75557,56.3467],[-114.75132,56.34745]],[[-114.97565,56.25769],[-114.97427,56.25533],[-114.97004,56.2561],[-114.96855,56.26158],[-114.9784,56.2624],[-114.97703,56.26005],[-114.98126,56.25928],[-114.97989,56.25692],[-114.97565,56.25769]],[[-114.67415,56.26227],[-114.6728,56.25991],[-114.66855,56.26066],[-114.66702,56.26614],[-114.67686,56.26699],[-114.67551,56.26463],[-114.67975,56.26388],[-114.67839,56.26152],[-114.67415,56.26227]]],[[[-115.08605,56.46981],[-115.09031,56.46904],[-115.0917,56.4714],[-115.08744,56.47217],[-115.08605,56.46981]]]]}},{"type":"Feature","properties":{"fire_id":"PRC-001","scan_time":"2030-05-10T04:00:00Z","mapped_area_ha":57090,"source":"airborne IR scan (synthetic)"},"geometry":{"type":"MultiPolygon","coordinates":[[[[-114.74961,55.03982],[-114.75371,55.03906],[-114.75766,55.04612],[-114.75356,55.04688],[-114.74961,55.03982]]],[[[-114.76307,55.04772],[-114.76996,55.04385],[-114.76601,55.03679],[-114.76191,55.03755],[-114.76059,55.03519],[-114.76469,55.03444],[-114.76337,55.03208],[-114.77157,55.03057],[-114.77025,55.02822],[-114.77845,55.02671],[-114.77976,55.02906],[-114.77567,55.02982],[-114.77698,55.03217],[-114.78108,55.03141],[-114.78372,55.03612],[-114.78781,55.03536],[-114.78913,55.03772],[-114.78503,55.03847],[-114.78767,55.04318],[-114.79177,55.04243],[-114.79309,55.04478],[-114.79719,55.04402],[-114.79587,55.04167],[-114.80406,55.04015],[-114.80538,55.04251],[-114.80948,55.04175],[-114.80816,55.0394],[-114.81226,55.03864],[-114.8083,55.03158],[-114.80421,55.03234],[-114.80157,55.02763],[-114.80567,55.02687],[-114.80435,55.02452],[-114.80025,55.02528],[-114.79893,55.02292],[-114.79484,55.02368],[-114.7922,55.01897],[-114.78269,55.01813],[-114.77874,55.01107],[-114.78284,55.01031],[-114.7802,55.00561],[-114.7843,55.00485],[-114.77757,55.0009],[-114.78985,54.99863],[-114.79117,55.00098],[-114.79527,55.00023],[-114.80199,55.00418],[-114.81018,55.00266],[-114.8115,55.00501],[-114.82114,54.99804],[-114.81442,54.99409],[-114.8226,54.99257],[-114.82656,54.99963],[-114.83606,55.00047],[-114.83474,54.99811],[-114.83884,54.99735],[-114.83092,54.98324],[-114.83501,54.98248],[-114.84715,54.98802],[-114.85124,54.98726],[-114.84992,54.98491],[-114.85402,54.98415],[-114.85534,54.9865],[-114.8622,54.98263],[-114.86484,54.98734],[-114.86893,54.98658],[-114.87025,54.98893],[-114.88252,54.98665],[-114.88385,54.989],[-114.8907,54.98513],[-114.89203,54.98748],[-114.89612,54.98672],[-114.89479,54.98437],[-114.89888,54.98361],[-114.89624,54.9789],[-114.90033,54.97814],[-114.89768,54.97344],[-114.90454,54.96956],[-114.90189,54.96486],[-114.91007,54.96334],[-114.92354,54.97122],[-114.92763,54.97046],[-114.9263,54.96811],[-114.93448,54.96658],[-114.9358,54.96894],[-114.95071,54.97135],[-114.95469,54.97841],[-114.95878,54.97764],[-114.96011,54.97999],[-114.97237,54.9777],[-114.9737,54.98006],[-114.97779,54.97929],[-114.98177,54.98635],[-114.98586,54.98558],[-114.98719,54.98793],[-114.9831,54.9887],[-114.98443,54.99105],[-114.98852,54.99028],[-114.98985,54.99263],[-114.98576,54.9934],[-114.98709,54.99575],[-114.99118,54.99499],[-114.98974,55.00045],[-114.99383,54.99969],[-114.99782,55.00674],[-115.00191,55.00598],[-115.00325,55.00833],[-114.99915,55.00909],[-115.00448,55.0185],[-115.00039,55.01926],[-114.99895,55.02473],[-115.00847,55.02555],[-115.01247,55.0326],[-115.01656,55.03184],[-115.01789,55.03419],[-115.02474,55.03031],[-115.02608,55.03266],[-115.03017,55.03189],[-115.0315,55.03424],[-115.04645,55.03664],[-115.05579,55.0531],[-115.05989,55.05233],[-115.0639,55.05938],[-115.06799,55.05862],[-115.06933,55.06097],[-115.06248,55.06485],[-115.06649,55.0719],[-115.06239,55.07267],[-115.06506,55.07737],[-115.06097,55.07814],[-115.0623,55.08049],[-115.07727,55.08289],[-115.08664,55.09934],[-115.07978,55.10323],[-115.08112,55.10558],[-115.08522,55.10481],[-115.08924,55.11186],[-115.08514,55.11263],[-115.09192,55.11656],[-115.08782,55.11733],[-115.08916,55.11968],[-115.08506,55.12045],[-115.0864,55.1228],[-115.07677,55.1298],[-115.08213,55.13921],[-115.08623,55.13844],[-115.08757,55.14079],[-115.08071,55.14468],[-115.08205,55.14703],[-115.08615,55.14626],[-115.08749,55.14861],[-115.08339,55.14938],[-115.08473,55.15173],[-115.08883,55.15096],[-115.08741,55.15643],[-115.09696,55.15724],[-115.10233,55.16665],[-115.09546,55.17053],[-115.09681,55.17289],[-115.10091,55.17212],[-115.09949,55.17759],[-115.09538,55.17836],[-115.09404,55.176],[-115.07904,55.17361],[-115.08038,55.17596],[-115.0735,55.17984],[-115.07619,55.18455],[-115.06797,55.18608],[-115.06654,55.19155],[-115.05832,55.19309],[-115.05966,55.19544],[-115.05555,55.1962],[-115.05689,55.19856],[-115.05278,55.19932],[-115.05412,55.20167],[-115.05001,55.20244],[-115.05135,55.20479],[-115.04724,55.20556],[-115.04304,55.21415],[-115.03481,55.21568],[-115.03615,55.21803],[-115.03204,55.2188],[-115.03338,55.22115],[-115.02926,55.22192],[-115.02506,55.2305],[-115.01682,55.23203],[-115.01549,55.22968],[-115.00725,55.23121],[-115.00859,55.23357],[-115.00448,55.23433],[-115.00314,55.23198],[-114.98812,55.22957],[-114.98667,55.23504],[-114.98256,55.2358],[-114.98122,55.23345],[-114.96887,55.23574],[-114.97021,55.23809],[-114.96609,55.23886],[-114.96186,55.24744],[-114.94951,55.24973],[-114.95084,55.25209],[-114.94261,55.25361],[-114.93036,55.24808],[-114.92212,55.2496],[-114.92067,55.25507],[-114.91655,55.25583],[-114.91522,55.25348],[-114.9111,55.25424],[-114.91243,55.2566],[-114.89183,55.2604],[-114.8905,55.25805],[-114.87401,55.26109],[-114.87268,55.25874],[-114.86856,55.2595],[-114.8671,55.26497],[-114.85885,55.26649],[-114.85752,55.26413],[-114.83691,55.26793],[-114.83544,55.2734],[-114.83132,55.27416],[-114.82999,55.2718],[-114.82174,55.27332],[-114.81496,55.26937],[-114.81084,55.27013],[-114.81216,55.27248],[-114.80391,55.274],[-114.80524,55.27635],[-114.79699,55.27787],[-114.79567,55.27551],[-114.78741,55.27703],[-114.78476,55.27232],[-114.77519,55.27148],[-114.77254,55.26677],[-114.76296,55.26592],[-114.76031,55.26121],[-114.75619,55.26197],[-114.74397,55.25641],[-114.7316,55.25868],[-114.71939,55.25312],[-114.71526,55.25388],[-114.71658,55.25623],[-114.70421,55.2585],[-114.70289,55.25614],[-114.69876,55.2569],[-114.70025,55.25143],[-114.70982,55.25228],[-114.7113,55.24681],[-114.70718,55.24757],[-114.70041,55.24361],[-114.69217,55.24512],[-114.68953,55.2404],[-114.6854,55.24116],[-114.68277,55.23645],[-114.67864,55.2372],[-114.67733,55.23484],[-114.68145,55.23409],[-114.68013,55.23173],[-114.68425,55.23098],[-114.68557,55.23334],[-114.6925,55.22947],[-114.68986,55.22476],[-114.68574,55.22551],[-114.68723,55.22005],[-114.69547,55.21854],[-114.69679,55.2209],[-114.70371,55.21703],[-114.70107,55.21232],[-114.69695,55.21308],[-114.693,55.20601],[-114.69712,55.20526],[-114.69053,55.19348],[-114.70008,55.19433],[-114.69876,55.19197],[-114.70568,55.18811],[-114.70436,55.18575],[-114.70025,55.18651],[-114.69629,55.17944],[-114.70041,55.17869],[-114.69778,55.17397],[-114.70189,55.17322],[-114.70057,55.17087],[-114.69646,55.17162],[-114.69383,55.16691],[-114.68971,55.16766],[-114.68708,55.16295],[-114.69119,55.1622],[-114.68988,55.15984],[-114.69811,55.15833],[-114.69942,55.16069],[-114.70765,55.15918],[-114.70897,55.16154],[-114.72131,55.15927],[-114.71999,55.15692],[-114.7241,55.15616],[-114.72674,55.16087],[-114.72263,55.16163],[-114.72394,55.16398],[-114.72806,55.16323],[-114.73069,55.16794],[-114.73481,55.16718],[-114.73613,55.16954],[-114.74304,55.16567],[-114.74568,55.17038],[-114.74156,55.17114],[-114.7442,55.17585],[-114.74832,55.17509],[-114.74964,55.17745],[-114.75934,55.17047],[-114.7567,55.16576],[-114.76081,55.16501],[-114.75949,55.16265],[-114.76904,55.16349],[-114.76772,55.16114],[-114.77462,55.15727],[-114.76522,55.14861],[-114.76111,55.14937],[-114.75979,55.14701],[-114.75157,55.14852],[-114.74893,55.14381],[-114.74482,55.14457],[-114.73691,55.13044],[-114.74513,55.12893],[-114.7466,55.12347],[-114.74249,55.12422],[-114.73311,55.11556],[-114.72901,55.11631],[-114.71684,55.11076],[-114.73459,55.11009],[-114.73327,55.10774],[-114.74017,55.10387],[-114.73753,55.09916],[-114.74443,55.0953],[-114.74311,55.09294],[-114.73901,55.0937],[-114.73637,55.08899],[-114.75411,55.08832],[-114.75837,55.07975],[-114.76657,55.07824],[-114.76526,55.07588],[-114.77478,55.07673],[-114.77346,55.07437],[-114.77756,55.07361],[-114.77493,55.06891],[-114.77903,55.06815],[-114.77771,55.0658],[-114.77361,55.06655],[-114.77097,55.06184],[-114.76687,55.0626],[-114.76556,55.06025],[-114.75735,55.06176],[-114.75604,55.0594],[-114.76292,55.05554],[-114.75766,55.04612],[-114.76176,55.04537],[-114.76307,55.04772]]],[[[-114.68165,55.16135],[-114.68576,55.16059],[-114.68708,55.16295],[-114.68296,55.1637],[-114.68165,55.16135]]],[[[-115.02783,55.22739],[-115.03194,55.22662],[-115.03329,55.22897],[-115.02917,55.22974],[-115.02783,55.22739]]]]}},{"type":"Feature","properties":{"fire_id":"PRC-002","scan_time":"2030-05-10T04:00:00Z","mapped_area_ha":15190,"source":"airborne IR scan (synthetic)"},"geometry":{"type":"MultiPolygon","coordinates":[[[[-111.53253,56.60105],[-111.53485,56.60585],[-111.5305,56.60648],[-111.52819,56.60169],[-111.53253,56.60105]]],[[[-111.44788,56.61856],[-111.44903,56.62096],[-111.44468,56.6216],[-111.44353,56.6192],[-111.44788,56.61856]]],[[[-111.41743,56.623],[-111.41858,56.6254],[-111.41423,56.62603],[-111.41308,56.62363],[-111.41743,56.623]]],[[[-111.58845,56.61081],[-111.58961,56.6132],[-111.58526,56.61384],[-111.5841,56.61144],[-111.58845,56.61081]]],[[[-111.56436,56.72475],[-111.5632,56.72235],[-111.55884,56.72299],[-111.5568,56.72842],[-111.55244,56.72906],[-111.55127,56.72666],[-111.54255,56.72794],[-111.54371,56.73034],[-111.53935,56.73098],[-111.54051,56.73337],[-111.5504,56.7345],[-111.54632,56.74536],[-111.53322,56.74728],[-111.53439,56.74967],[-111.53002,56.75031],[-111.52886,56.74791],[-111.51577,56.74983],[-111.51461,56.74743],[-111.50588,56.7487],[-111.50472,56.7463],[-111.50035,56.74694],[-111.4992,56.74454],[-111.48379,56.74165],[-111.48147,56.73686],[-111.47711,56.73749],[-111.47595,56.73509],[-111.48032,56.73446],[-111.47916,56.73206],[-111.46928,56.73093],[-111.46812,56.72853],[-111.47569,56.72486],[-111.47222,56.71767],[-111.46786,56.71831],[-111.46671,56.71591],[-111.46235,56.71654],[-111.46029,56.72197],[-111.45593,56.72261],[-111.45478,56.72021],[-111.44169,56.72211],[-111.44284,56.72451],[-111.43848,56.72515],[-111.43181,56.72098],[-111.43617,56.72035],[-111.43823,56.71492],[-111.43387,56.71555],[-111.43271,56.71315],[-111.42399,56.71442],[-111.42169,56.70962],[-111.41732,56.71026],[-111.41617,56.70786],[-111.40745,56.70912],[-111.4063,56.70672],[-111.39321,56.70862],[-111.39436,56.71102],[-111.38564,56.71229],[-111.38449,56.70989],[-111.38885,56.70925],[-111.38655,56.70446],[-111.38219,56.70509],[-111.37002,56.69915],[-111.37875,56.69789],[-111.37989,56.70029],[-111.38747,56.69663],[-111.38517,56.69183],[-111.38081,56.69246],[-111.38058,56.68223],[-111.37071,56.6811],[-111.36176,56.67213],[-111.3519,56.67099],[-111.35076,56.66859],[-111.35511,56.66796],[-111.35168,56.66076],[-111.36475,56.65887],[-111.36589,56.66127],[-111.37025,56.66064],[-111.3691,56.65824],[-111.37346,56.65761],[-111.37117,56.65281],[-111.36681,56.65344],[-111.36566,56.65104],[-111.37437,56.64978],[-111.37323,56.64738],[-111.37758,56.64675],[-111.37988,56.65155],[-111.38423,56.65092],[-111.38538,56.65331],[-111.39844,56.65142],[-111.3973,56.64902],[-111.40165,56.64839],[-111.4028,56.65078],[-111.40715,56.65015],[-111.406,56.64775],[-111.41907,56.64585],[-111.42022,56.64825],[-111.42457,56.64762],[-111.42662,56.64219],[-111.42227,56.64282],[-111.41562,56.63866],[-111.41997,56.63803],[-111.41767,56.63323],[-111.42202,56.63259],[-111.41858,56.6254],[-111.42843,56.62653],[-111.43073,56.63133],[-111.43508,56.63069],[-111.44173,56.63486],[-111.44928,56.63119],[-111.45044,56.63359],[-111.46029,56.63472],[-111.45914,56.63232],[-111.46349,56.63168],[-111.46234,56.62929],[-111.45799,56.62992],[-111.45568,56.62512],[-111.46003,56.62449],[-111.45338,56.62033],[-111.46093,56.61666],[-111.45863,56.61186],[-111.46298,56.61123],[-111.46182,56.60883],[-111.46617,56.6082],[-111.46732,56.6106],[-111.47602,56.60932],[-111.47717,56.61172],[-111.48587,56.61045],[-111.48818,56.61525],[-111.49252,56.61461],[-111.49368,56.61701],[-111.50238,56.61574],[-111.50353,56.61813],[-111.51657,56.61622],[-111.51773,56.61862],[-111.52208,56.61798],[-111.52412,56.61255],[-111.53281,56.61128],[-111.53485,56.60585],[-111.53919,56.60521],[-111.54035,56.6076],[-111.54904,56.60633],[-111.5502,56.60873],[-111.55454,56.60809],[-111.55339,56.60569],[-111.56208,56.60441],[-111.56005,56.60985],[-111.5699,56.61097],[-111.57222,56.61576],[-111.57657,56.61512],[-111.57772,56.61752],[-111.58526,56.61384],[-111.58642,56.61624],[-111.60178,56.61911],[-111.60643,56.6287],[-111.60208,56.62934],[-111.60673,56.63893],[-111.61108,56.63829],[-111.61224,56.64068],[-111.60789,56.64132],[-111.60905,56.64372],[-111.6134,56.64308],[-111.61456,56.64548],[-111.62326,56.64419],[-111.62994,56.64835],[-111.63864,56.64706],[-111.6398,56.64946],[-111.63545,56.6501],[-111.63778,56.65489],[-111.64213,56.65425],[-111.6433,56.65665],[-111.652,56.65536],[-111.65433,56.66016],[-111.64998,56.6608],[-111.65115,56.6632],[-111.64361,56.66688],[-111.64594,56.67167],[-111.64159,56.67231],[-111.64275,56.67471],[-111.63202,56.68142],[-111.63871,56.68558],[-111.63,56.68686],[-111.63116,56.68926],[-111.61374,56.69182],[-111.61172,56.69725],[-111.60736,56.69789],[-111.60619,56.6955],[-111.59748,56.69678],[-111.59864,56.69918],[-111.59109,56.70285],[-111.59342,56.70765],[-111.58354,56.70653],[-111.5847,56.70893],[-111.58034,56.70957],[-111.58151,56.71196],[-111.57715,56.7126],[-111.57831,56.715],[-111.57395,56.71564],[-111.57511,56.71804],[-111.56436,56.72475]],[[-111.49874,56.68557],[-111.50746,56.68429],[-111.5127,56.67583],[-111.50834,56.67646],[-111.50719,56.67407],[-111.50283,56.6747],[-111.50399,56.6771],[-111.49528,56.67837],[-111.49643,56.68077],[-111.49208,56.68141],[-111.48683,56.68987],[-111.4967,56.691],[-111.49874,56.68557]],[[-111.55741,56.67185],[-111.56176,56.67121],[-111.5606,56.66881],[-111.55074,56.66769],[-111.5455,56.67616],[-111.55537,56.67728],[-111.55741,56.67185]],[[-111.61138,56.64851],[-111.60151,56.6474],[-111.59949,56.65283],[-111.60935,56.65395],[-111.61138,56.64851]]],[[[-111.57308,56.72347],[-111.57192,56.72107],[-111.57628,56.72043],[-111.57744,56.72283],[-111.57308,56.72347]]],[[[-111.56116,56.72778],[-111.56232,56.73018],[-111.55796,56.73082],[-111.5568,56.72842],[-111.56116,56.72778]]],[[[-111.49483,56.74518],[-111.49599,56.74758],[-111.49162,56.74821],[-111.49047,56.74581],[-111.49483,56.74518]]]]}},{"type":"Feature","properties":{"fire_id":"PRC-003","scan_time":"2030-05-10T04:00:00Z","mapped_area_ha":111170,"source":"airborne IR scan (synthetic)"},"geometry":{"type":"MultiPolygon","coordinates":[[[[-115.03099,56.22421],[-115.03522,56.22344],[-115.0366,56.2258],[-115.03237,56.22656],[-115.03099,56.22421]]],[[[-114.58075,56.33607],[-114.5821,56.33843],[-114.57784,56.33918],[-114.57649,56.33682],[-114.58075,56.33607]]],[[[-114.56313,56.36259],[-114.56448,56.36496],[-114.56022,56.36571],[-114.55887,56.36334],[-114.56313,56.36259]]],[[[-114.63388,56.47762],[-114.63815,56.47687],[-114.6327,56.46742],[-114.62843,56.46817],[-114.62707,56.46581],[-114.63561,56.4643],[-114.64006,56.45571],[-114.65286,56.45345],[-114.6544,56.44797],[-114.65014,56.44872],[-114.64878,56.44636],[-114.62318,56.45088],[-114.62454,56.45324],[-114.62027,56.45399],[-114.61891,56.45163],[-114.60902,56.45077],[-114.60495,56.44369],[-114.60068,56.44444],[-114.5937,56.44046],[-114.5809,56.44272],[-114.57954,56.44036],[-114.56965,56.43949],[-114.5683,56.43713],[-114.57257,56.43638],[-114.57121,56.43402],[-114.56694,56.43477],[-114.56423,56.43004],[-114.55997,56.43079],[-114.55861,56.42843],[-114.55008,56.42993],[-114.54738,56.4252],[-114.55164,56.42445],[-114.54893,56.41972],[-114.5532,56.41897],[-114.55184,56.41661],[-114.54758,56.41736],[-114.54623,56.415],[-114.53343,56.41725],[-114.52938,56.41016],[-114.53364,56.40941],[-114.53229,56.40704],[-114.52803,56.40779],[-114.52532,56.40307],[-114.52959,56.40232],[-114.53115,56.39684],[-114.52688,56.39759],[-114.51431,56.392],[-114.53561,56.38825],[-114.53426,56.38589],[-114.53852,56.38514],[-114.53987,56.3875],[-114.55266,56.38525],[-114.55401,56.38761],[-114.56253,56.38611],[-114.5695,56.39009],[-114.57802,56.38859],[-114.57666,56.38622],[-114.58092,56.38547],[-114.57821,56.38075],[-114.58247,56.37999],[-114.57976,56.37527],[-114.58402,56.37452],[-114.58131,56.36979],[-114.57706,56.37054],[-114.56448,56.36496],[-114.573,56.36345],[-114.57164,56.36109],[-114.58151,56.36195],[-114.58016,56.35959],[-114.58441,56.35884],[-114.59699,56.36442],[-114.60415,56.36056],[-114.60279,56.35819],[-114.59293,56.35733],[-114.59447,56.35186],[-114.58461,56.351],[-114.5819,56.34627],[-114.58616,56.34552],[-114.5792,56.34155],[-114.58345,56.3408],[-114.585,56.33532],[-114.58925,56.33457],[-114.59621,56.33854],[-114.60472,56.33704],[-114.60337,56.33467],[-114.60762,56.33392],[-114.60626,56.33156],[-114.60201,56.33231],[-114.59389,56.31814],[-114.59814,56.31739],[-114.6051,56.32136],[-114.61785,56.3191],[-114.61921,56.32146],[-114.62771,56.31996],[-114.62907,56.32232],[-114.64182,56.32006],[-114.64878,56.32403],[-114.65303,56.32328],[-114.65167,56.32091],[-114.65592,56.32016],[-114.65728,56.32252],[-114.67428,56.3195],[-114.67564,56.32187],[-114.67989,56.32111],[-114.68686,56.32508],[-114.69536,56.32357],[-114.70794,56.32914],[-114.71644,56.32763],[-114.71507,56.32527],[-114.72357,56.32376],[-114.72221,56.32139],[-114.72935,56.31752],[-114.72662,56.3128],[-114.73087,56.31204],[-114.72951,56.30968],[-114.73953,56.30269],[-114.73817,56.30033],[-114.73392,56.30108],[-114.73544,56.29561],[-114.7312,56.29636],[-114.72984,56.294],[-114.72135,56.29552],[-114.71999,56.29315],[-114.71149,56.29467],[-114.70878,56.28995],[-114.70453,56.2907],[-114.69757,56.28673],[-114.69043,56.29061],[-114.68908,56.28825],[-114.68058,56.28976],[-114.67363,56.28579],[-114.66089,56.28805],[-114.65953,56.28569],[-114.64968,56.28483],[-114.64833,56.28247],[-114.65258,56.28172],[-114.64987,56.277],[-114.64562,56.27775],[-114.64291,56.27303],[-114.63307,56.27217],[-114.63172,56.26981],[-114.63885,56.26594],[-114.6375,56.26358],[-114.63325,56.26433],[-114.6319,56.26197],[-114.63614,56.26122],[-114.63479,56.25886],[-114.63055,56.25961],[-114.62919,56.25725],[-114.63344,56.25649],[-114.62803,56.24705],[-114.63516,56.24318],[-114.63381,56.24082],[-114.62956,56.24157],[-114.62821,56.23921],[-114.61973,56.24072],[-114.61279,56.23674],[-114.62127,56.23524],[-114.62262,56.2376],[-114.62686,56.23685],[-114.62551,56.23449],[-114.63823,56.23223],[-114.63688,56.22987],[-114.64112,56.22911],[-114.63571,56.21967],[-114.63995,56.21891],[-114.63859,56.21655],[-114.64283,56.2158],[-114.64418,56.21816],[-114.6569,56.2159],[-114.66384,56.21987],[-114.67232,56.21836],[-114.67367,56.22072],[-114.67791,56.21997],[-114.67656,56.2176],[-114.68079,56.21685],[-114.67944,56.21449],[-114.6752,56.21524],[-114.67249,56.21052],[-114.67673,56.20977],[-114.68114,56.20117],[-114.6769,56.20193],[-114.67555,56.19957],[-114.66014,56.19711],[-114.65743,56.19239],[-114.66167,56.19163],[-114.66302,56.19399],[-114.66726,56.19324],[-114.6659,56.19088],[-114.67014,56.19012],[-114.67149,56.19249],[-114.67861,56.18862],[-114.67996,56.19098],[-114.68843,56.18947],[-114.68978,56.19183],[-114.70807,56.19117],[-114.71502,56.19513],[-114.71925,56.19438],[-114.72365,56.18578],[-114.73211,56.18427],[-114.73906,56.18823],[-114.74752,56.18672],[-114.74616,56.18436],[-114.75327,56.18048],[-114.75463,56.18284],[-114.77004,56.18529],[-114.77276,56.19001],[-114.77699,56.18925],[-114.77835,56.19161],[-114.78545,56.18773],[-114.78681,56.19009],[-114.79105,56.18934],[-114.798,56.1933],[-114.80646,56.19178],[-114.81342,56.19574],[-114.81765,56.19498],[-114.82202,56.18638],[-114.82625,56.18562],[-114.82762,56.18798],[-114.84031,56.1857],[-114.84304,56.19041],[-114.84727,56.18965],[-114.84863,56.19201],[-114.85573,56.18813],[-114.853,56.18341],[-114.86146,56.18189],[-114.86282,56.18425],[-114.87128,56.18273],[-114.87538,56.1898],[-114.87961,56.18904],[-114.88098,56.1914],[-114.88521,56.19064],[-114.89777,56.19619],[-114.90623,56.19466],[-114.9076,56.19702],[-114.91743,56.19785],[-114.92016,56.20257],[-114.92439,56.2018],[-114.92577,56.20416],[-114.92153,56.20492],[-114.92428,56.20964],[-114.91718,56.21353],[-114.91992,56.21824],[-114.92416,56.21748],[-114.92553,56.21984],[-114.93399,56.21831],[-114.93536,56.22067],[-114.94383,56.21914],[-114.9452,56.2215],[-114.94943,56.22073],[-114.94806,56.21837],[-114.95229,56.21761],[-114.93983,56.20423],[-114.94406,56.20346],[-114.94543,56.20582],[-114.94966,56.20506],[-114.95114,56.19958],[-114.95537,56.19881],[-114.95675,56.20117],[-114.96943,56.19887],[-114.98339,56.20677],[-114.98761,56.206],[-114.98624,56.20365],[-114.99893,56.20135],[-114.99745,56.20683],[-115.00168,56.20606],[-115.00305,56.20842],[-115.01849,56.21083],[-115.024,56.22026],[-115.02823,56.21949],[-115.03099,56.22421],[-115.02676,56.22497],[-115.02813,56.22733],[-115.01967,56.22887],[-115.02105,56.23122],[-115.01682,56.23199],[-115.02381,56.23594],[-115.03227,56.2344],[-115.03926,56.23835],[-115.05195,56.23604],[-115.05333,56.2384],[-115.0618,56.23686],[-115.06318,56.23922],[-115.07164,56.23768],[-115.07302,56.24004],[-115.0801,56.23614],[-115.0732,56.22436],[-115.07743,56.22359],[-115.07881,56.22595],[-115.0915,56.22364],[-115.09288,56.22599],[-115.09711,56.22522],[-115.09987,56.22993],[-115.09564,56.2307],[-115.09979,56.23777],[-115.09556,56.23854],[-115.09694,56.2409],[-115.10118,56.24013],[-115.11379,56.24566],[-115.12225,56.24411],[-115.13611,56.26767],[-115.13188,56.26844],[-115.13326,56.2708],[-115.1375,56.27003],[-115.14305,56.27945],[-115.13596,56.28335],[-115.13874,56.28806],[-115.12326,56.28566],[-115.12464,56.28802],[-115.12041,56.28879],[-115.12318,56.2935],[-115.12742,56.29273],[-115.13019,56.29744],[-115.13443,56.29667],[-115.13859,56.30374],[-115.14846,56.30455],[-115.147,56.31004],[-115.15124,56.30926],[-115.16388,56.31479],[-115.1766,56.31247],[-115.18356,56.32424],[-115.17647,56.32815],[-115.17786,56.3305],[-115.1821,56.32973],[-115.18489,56.33444],[-115.18065,56.33521],[-115.18482,56.34228],[-115.18058,56.34305],[-115.17913,56.34854],[-115.17489,56.34931],[-115.17349,56.34695],[-115.1664,56.35086],[-115.17058,56.35792],[-115.17482,56.35715],[-115.17761,56.36186],[-115.18749,56.36267],[-115.19307,56.37209],[-115.18597,56.376],[-115.18876,56.38071],[-115.18027,56.38226],[-115.18166,56.38461],[-115.16892,56.38693],[-115.17032,56.38929],[-115.16607,56.39006],[-115.17025,56.39713],[-115.16315,56.40103],[-115.16872,56.41045],[-115.16447,56.41123],[-115.16301,56.41671],[-115.15876,56.41749],[-115.15737,56.41513],[-115.14887,56.41667],[-115.14747,56.41432],[-115.15172,56.41355],[-115.14469,56.40961],[-115.13758,56.41351],[-115.13897,56.41586],[-115.14322,56.41509],[-115.14176,56.42058],[-115.14601,56.4198],[-115.15305,56.42374],[-115.14594,56.42764],[-115.15298,56.43158],[-115.14022,56.4339],[-115.14161,56.43626],[-115.13736,56.43703],[-115.14015,56.44174],[-115.13589,56.44252],[-115.14293,56.44646],[-115.13017,56.44877],[-115.12878,56.44642],[-115.12452,56.44719],[-115.12591,56.44954],[-115.1188,56.45344],[-115.12298,56.46051],[-115.10455,56.46124],[-115.10022,56.46985],[-115.08318,56.47294],[-115.08457,56.47529],[-115.08031,56.47606],[-115.07597,56.48468],[-115.06744,56.48622],[-115.06596,56.4917],[-115.05318,56.49401],[-115.05457,56.49637],[-115.04465,56.49555],[-115.04317,56.50103],[-115.0275,56.50646],[-115.02889,56.50882],[-115.02463,56.50959],[-115.0274,56.5143],[-115.02314,56.51507],[-115.02453,56.51743],[-115.01599,56.51897],[-115.01163,56.52758],[-114.99456,56.53065],[-114.99317,56.52829],[-114.98463,56.52982],[-114.98325,56.52746],[-114.97898,56.52823],[-114.9746,56.53684],[-114.97033,56.5376],[-114.96894,56.53524],[-114.96179,56.53913],[-114.96306,56.54934],[-114.95879,56.5501],[-114.95741,56.54774],[-114.95314,56.54851],[-114.95452,56.55087],[-114.94598,56.5524],[-114.94459,56.55004],[-114.93466,56.54921],[-114.93316,56.55469],[-114.94309,56.55552],[-114.94725,56.5626],[-114.94297,56.56337],[-114.94436,56.56573],[-114.93154,56.56802],[-114.92714,56.57663],[-114.91721,56.5758],[-114.91859,56.57816],[-114.90149,56.58121],[-114.90287,56.58357],[-114.8986,56.58434],[-114.89721,56.58198],[-114.89294,56.58274],[-114.88879,56.57566],[-114.88451,56.57642],[-114.87182,56.57087],[-114.85747,56.57863],[-114.85609,56.57627],[-114.84754,56.5778],[-114.84616,56.57544],[-114.83333,56.57772],[-114.82064,56.57216],[-114.81208,56.57368],[-114.81056,56.57916],[-114.80628,56.57992],[-114.8049,56.57756],[-114.79772,56.58144],[-114.79635,56.57908],[-114.79207,56.57984],[-114.77939,56.57427],[-114.77083,56.57579],[-114.7693,56.58127],[-114.76074,56.58279],[-114.75799,56.57807],[-114.74241,56.57562],[-114.74104,56.57326],[-114.7496,56.57174],[-114.74822,56.56938],[-114.7525,56.56862],[-114.75387,56.57098],[-114.76106,56.5671],[-114.75968,56.56474],[-114.74975,56.5639],[-114.74838,56.56153],[-114.75266,56.56078],[-114.75129,56.55842],[-114.74701,56.55917],[-114.74427,56.55445],[-114.73999,56.55521],[-114.73862,56.55285],[-114.73006,56.55436],[-114.72305,56.55039],[-114.71877,56.55115],[-114.71723,56.55663],[-114.71296,56.55739],[-114.71159,56.55502],[-114.70303,56.55654],[-114.70029,56.55181],[-114.66916,56.5469],[-114.66797,56.53669],[-114.6637,56.53744],[-114.66233,56.53508],[-114.65805,56.53584],[-114.65532,56.53111],[-114.65105,56.53187],[-114.64832,56.52714],[-114.6555,56.52327],[-114.65278,56.51854],[-114.6485,56.5193],[-114.64714,56.51693],[-114.63723,56.51608],[-114.6345,56.51135],[-114.63023,56.51211],[-114.6275,56.50738],[-114.63177,56.50663],[-114.62633,56.49718],[-114.62205,56.49793],[-114.61506,56.49396],[-114.6236,56.49245],[-114.62496,56.49481],[-114.62924,56.49406],[-114.63078,56.48858],[-114.64069,56.48944],[-114.63933,56.48707],[-114.6436,56.48632],[-114.64223,56.48396],[-114.63233,56.4831],[-114.63388,56.47762]],[[-114.70491,56.53537],[-114.69499,56.53452],[-114.69345,56.54],[-114.70337,56.54085],[-114.70491,56.53537]],[[-114.89735,56.4855],[-114.89309,56.48626],[-114.89171,56.4839],[-114.88318,56.48543],[-114.88456,56.48779],[-114.88029,56.48855],[-114.88167,56.49091],[-114.88594,56.49015],[-114.89007,56.49723],[-114.89434,56.49647],[-114.89572,56.49883],[-114.90287,56.49494],[-114.89735,56.4855]],[[-114.9591,56.43011],[-114.94921,56.42928],[-114.94771,56.43476],[-114.95761,56.43559],[-114.9591,56.43011]],[[-114.81751,56.35647],[-114.81326,56.35723],[-114.81189,56.35487],[-114.81614,56.35411],[-114.81341,56.34939],[-114.79792,56.34695],[-114.79929,56.34931],[-114.79504,56.35007],[-114.79914,56.35715],[-114.80339,56.35639],[-114.80188,56.36187],[-114.80613,56.36111],[-114.8075,56.36347],[-114.816,56.36195],[-114.81751,56.35647]],[[-114.98624,56.30791],[-114.99048,56.30714],[-114.9891,56.30478],[-114.98486,56.30555],[-114.98073,56.29848],[-114.98497,56.29771],[-114.96833,56.27726],[-114.9641,56.27802],[-114.95711,56.27407],[-114.94863,56.2756],[-114.94726,56.27324],[-114.93878,56.27477],[-114.93741,56.27241],[-114.93317,56.27318],[-114.93454,56.27554],[-114.9303,56.2763],[-114.93168,56.27866],[-114.93591,56.27789],[-114.93866,56.28261],[-114.93018,56.28414],[-114.93156,56.2865],[-114.92732,56.28726],[-114.93431,56.29121],[-114.93006,56.29198],[-114.93281,56.2967],[-114.9257,56.30058],[-114.92708,56.30294],[-114.93132,56.30218],[-114.92983,56.30766],[-114.93407,56.30689],[-114.93682,56.31161],[-114.94106,56.31085],[-114.94806,56.3148],[-114.96079,56.3125],[-114.96216,56.31486],[-114.96641,56.31409],[-114.96503,56.31174],[-114.96927,56.31097],[-114.96652,56.30626],[-114.97076,56.30549],[-114.97489,56.31256],[-114.97913,56.3118],[-114.98051,56.31416],[-114.98475,56.31339],[-114.98624,56.30791]],[[-114.77697,56.33507],[-114.76711,56.33422],[-114.76559,56.3397],[-114.77545,56.34054],[-114.77697,56.33507]],[[-114.77864,56.32175],[-114.76878,56.3209],[-114.76726,56.32638],[-114.77713,56.32723],[-114.77864,56.32175]],[[-114.70216,56.33538],[-114.69229,56.33453],[-114.69076,56.34],[-114.70063,56.34085],[-114.70216,56.33538]],[[-114.75772,56.30986],[-114.74786,56.30901],[-114.74634,56.31449],[-114.7562,56.31534],[-114.75772,56.30986]],[[-114.97989,56.25692],[-114.97004,56.2561],[-114.96855,56.26158],[-114.9784,56.2624],[-114.97989,56.25692]],[[-114.7723,56.21352],[-114.77653,56.21276],[-114.77245,56.20568],[-114.76822,56.20644],[-114.7655,56.20172],[-114.76127,56.20248],[-114.75991,56.20012],[-114.75144,56.20164],[-114.7528,56.204],[-114.74856,56.20475],[-114.75128,56.20947],[-114.75552,56.20872],[-114.75687,56.21108],[-114.75264,56.21183],[-114.75112,56.21731],[-114.75536,56.21655],[-114.75672,56.21891],[-114.76519,56.2174],[-114.76655,56.21976],[-114.77079,56.219],[-114.7723,56.21352]]],[[[-114.62806,56.48385],[-114.63233,56.4831],[-114.63369,56.48546],[-114.62942,56.48622],[-114.62806,56.48385]]],[[[-115.08596,56.47765],[-115.08735,56.48001],[-115.08309,56.48078],[-115.0817,56.47842],[-115.08596,56.47765]]],[[[-114.78642,56.57824],[-114.78779,56.5806],[-114.78351,56.58136],[-114.78214,56.579],[-114.78642,56.57824]]]]}}]}